web-scraper-order;address;lat;lon;bfs_name;bfs_number
1693998201-1;Neuhusstrasse 6, 8630 Rüti ZH, ZH;47.25217056;8.845796585;Rüti (ZH);118
1693998201-2;Zürcherstrasse 1, 8173 Neerach, ZH;47.51333237;8.474850655;Neerach;88
1693998201-5;Rotachstrasse 33, 8003 Zürich, ZH;47.37079239;8.51474762;Zürich;261
1693998201-16;Wolframplatz 1, 8045 Zürich, ZH;47.3622818;8.522192955;Zürich;261
1693998205-25;Badenerstrasse 67, 8953 Dietikon, ZH;47.40792465;8.392560959;Dietikon;243
1693998205-27;Kanzleistrasse 15, 8418 Schlatt ZH, ZH;47.46419907;8.845925331;Schlatt (ZH);226
1693998205-29;Bolletweg 14, 8934 Knonau, ZH;47.2260437;8.461561203;Knonau;7
1693998205-30;Im Zauner 24, 8352 Elsau, ZH;47.50167084;8.805103302;Elsau;219
1693998205-32;Maneggstrasse 87, 8041 Zürich, ZH;47.33791351;8.520033836;Zürich;261
1693998205-33;Haldenstrasse 67, 8602 Wangen b. Dübendorf, ZH;47.4155159;8.635632515;Wangen-Brüttisellen;200
1693998205-34;Hobelwerkweg 39a, 8404 Winterthur, ZH;47.50949478;8.762660027;Winterthur;230
1693998205-35;Hobelwerkweg 39a, 8404 Winterthur, ZH;47.50949478;8.762660027;Winterthur;230
1693998205-36;Albisriederstrasse 392a, 8047 Zürich, ZH;47.37469482;8.482722282;Zürich;261
1693998205-37;Tisliacherstrasse 8, 8320 Fehraltorf, ZH;47.38373184;8.760611534;Fehraltorf;172
1693998205-38;Buckwiesstrasse 12, 8700 Küsnacht ZH, ZH;47.31980515;8.592112541;Küsnacht (ZH);154
1693998205-39;Binzigerstrasse 52, 8707 Uetikon am See, ZH;47.26718521;8.68993187;Uetikon am See;159
1693998205-40;Hinterdorfstr. 4, 8315 Lindau, ZH;47.44243622;8.671416283;Lindau;176
1693998205-41;Dübendorfstrasse 22, 8602 Wangen b. Dübendorf, ZH;47.40997314;8.64249897;Wangen-Brüttisellen;200
1693998205-43;Limmatstrasse 260, 8005 Zürich, ZH;47.38913345;8.525841713;Zürich;261
1693998205-44;Friedenweg 5, 8192 Glattfelden, ZH;47.55609894;8.506474495;Glattfelden;58
1693998205-45;Niederglatterstrasse 21, 8155 Niederhasli, ZH;47.48181915;8.48735714;Niederhasli;90
1693998205-46;Marktgasse 17, 8400 Winterthur, ZH;47.49971008;8.729727745;Winterthur;230
1693998205-48;Goldistenstrasse 23, 8625 Gossau ZH, ZH;47.30751038;8.764126778;Gossau (ZH);115
1693998210-50;8152 Glattpark (Opfikon), ZH;47.4247551;8.563809395;Opfikon;66
1693998210-51;Hofackerstrasse 5, 8422 Pfungen, ZH;47.5152359;8.642589569;Pfungen;224
1693998210-52;Untere Briggerstrasse 66, 8406 Winterthur, ZH;47.49394989;8.711239815;Winterthur;230
1693998210-53;Bergstrasse  16, 8955 Oetwil an der Limmat, ZH;47.42891693;8.398645401;Oetwil an der Limmat;246
1693998210-54;Hagenholzstrasse 100, 8050 Zürich, ZH;47.41421509;8.558320045;Zürich;261
1693998210-55;8303 Bassersdorf, ZH;47.44166946;8.630970001;Bassersdorf;52
1693998210-56;8152 Glattbrugg, ZH;47.4339447;8.570492744;Opfikon;66
1693998210-57;8182 Hochfelden, ZH;47.52261353;8.516746521;Hochfelden;59
1693998210-58;Lehenstrasse 51, 8037 Zürich, ZH;47.39653015;8.52335453;Zürich;261
1693998210-59;8180 Bülach, ZH;47.52003098;8.566342354;Bülach;53
1693998210-60;8340 Hinwil, ZH;47.2918129;8.820669174;Hinwil;117
1693998210-61;Aprikosenstrasse 5, 8051 Zürich, ZH;47.40581894;8.570385933;Zürich;261
1693998210-62;8800 Thalwil, ZH;47.29138184;8.55769825;Thalwil;141
1693998210-63;8427 Rorbas, ZH;47.53139877;8.580067635;Rorbas;68
1693998210-64;Breitenstrasse 14, 8134 Adliswil, ZH;47.30633926;8.519155502;Adliswil;131
1693998210-65;Wallisellerstrasse 24, 8152 Glattbrugg, ZH;47.43341827;8.568982124;Opfikon;66
1693998210-66;8636 Wald ZH, ZH;47.27400589;8.915390968;Wald (ZH);120
1693998210-67;Wülflingerstrasse 25, 8400 Winterthur, ZH;47.50473785;8.718044281;Winterthur;230
1693998210-69;8041 Zürich, ZH;47.32240295;8.513796806;Adliswil;131
1693998210-70;Ida-Sträuli-Strasse 39, 8404 Winterthur, ZH;47.50312042;8.766748428;Winterthur;230
1693998210-71;Chrüzweg 4, 8805 Richterswil, ZH;47.20819092;8.706659317;Richterswil;138
1693998210-72;Herbstweg 57, 8050 Zürich, ZH;47.406353;8.561315536;Zürich;261
1693998214-75;Fangletenstrasse 6, 8180 Bülach, ZH;47.52735138;8.538234711;Bülach;53
1693998214-76;8154 Oberglatt ZH, ZH;47.48006821;8.524243355;Oberglatt;92
1693998214-77;Oberdorfstrasse, 8934 Knonau, ZH;47.22494125;8.461728096;Knonau;7
1693998214-78;8004 Zürich, ZH;47.38041687;8.525351524;Zürich;261
1693998214-79;Poststrasse, 8953 Dietikon, ZH;47.40356827;8.405932426;Dietikon;243
1693998214-82;Baurstrasse 29, 8008 Zürich, ZH;47.3559227;8.554497719;Zürich;261
1693998214-83;Baurstrasse 29, 8008 Zürich, ZH;47.3559227;8.554497719;Zürich;261
1693998214-84;Zentralstrasse 37, 8003 Zürich, ZH;47.37150574;8.519575119;Zürich;261
1693998214-85;Alter Seeweg, 8124 Maur, ZH;47.33884811;8.672297478;Maur;195
1693998214-86;Friedhofstrasse 9, 8104 Weiningen ZH, ZH;47.42219162;8.435792923;Weiningen (ZH);251
1693998214-87;8049 Zürich, ZH;47.40711594;8.494709969;Zürich;261
1693998214-88;Dorfstrasse 2, 8309 Nürensdorf, ZH;47.45838928;8.63862896;Nürensdorf;64
1693998214-89;Schulhausstrasse, 8180 Bülach, ZH;47.51849365;8.537640572;Bülach;53
1693998214-90;8400 Winterthur, ZH;47.49886703;8.72268486;Winterthur;230
1693998214-92;Niderdürstelenstrasse 59, 8494 Bauma, ZH;47.37016296;8.855679512;Bauma;297
1693998214-93;Bucheggstrasse 130, 8057 Zürich, ZH;47.39831924;8.538369179;Zürich;261
1693998214-94;8704 Herrliberg, ZH;47.28742218;8.617650032;Herrliberg;152
1693998214-95;Mülibachstrasse 9, 8805 Richterswil, ZH;47.2037468;8.705288887;Richterswil;138
1693998214-96;Rauchackerstrasse 48, 8102 Oberengstringen, ZH;47.40972137;8.45624733;Oberengstringen;245
1693998219-97;Dättlikonerstrasse 4, 8422 Pfungen, ZH;47.51791382;8.638660431;Pfungen;224
1693998219-98;Hagenbuchstrasse 29, 8192 Zweidlen, ZH;47.57001114;8.469552994;Glattfelden;58
1693998219-114;Forchstrasse 84, 8008 Zürich, ZH;47.36206818;8.55924511;Zürich;261
1693998219-115;Heiselstrasse 89, 8155 Niederhasli, ZH;47.4835434;8.496526718;Niederhasli;90
1693998219-116;Grosswiesenstr. 61, 8422 Pfungen, ZH;47.51723862;8.640911102;Pfungen;224
1693998219-117;Obermattweg 3, 8545 Rickenbach ZH, ZH;47.54986954;8.794327736;Rickenbach (ZH);225
1693998219-118;8002 Zürich, ZH;47.3610611;8.532576561;Zürich;261
1693998219-119;Freudenbergstrasse, 8044 Zürich, ZH;47.37955475;8.559854507;Zürich;261
1693998224-121;Mitteldorfstrasse 27, 8475 Ossingen, ZH;47.61135101;8.726527214;Ossingen;37
1693998224-122;Rainstrasse 80, 8712 Stäfa, ZH;47.24862671;8.720181465;Stäfa;158
1693998224-123;Keltenstrasse 12, 8044 Zürich, ZH;47.37654877;8.561196327;Zürich;261
1693998224-125;Hirschweg 9, 8405 Winterthur, ZH;47.48258209;8.768205643;Winterthur;230
1693998224-126;Neunfornerstrasse 4, 8479 Altikon, ZH;47.57373428;8.781241417;Altikon;211
1693998224-127;Binzstr. 41, 8620 Wetzikon ZH, ZH;47.3293457;8.800528526;Wetzikon (ZH);121
1693998224-128;Müliwiesstrasse 71, 8487 Zell ZH, ZH;47.44268417;8.820551872;Zell (ZH);231
1693998224-130;Leigass 7, 8820 Wädenswil, ZH;47.22558594;8.672236443;Wädenswil;293
1693998224-131;Hagenholzstrasse 59, 8050 Zürich, ZH;47.41465759;8.555407524;Zürich;261
1693998224-132;Im Rebacher 10, 8118 Pfaffhausen, ZH;47.36219406;8.621418953;Fällanden;193
1693998224-133;Forchstrasse 150, 8032 Zürich, ZH;47.36029434;8.56423378;Zürich;261
1693998224-134;Wartstr. 30, 8400 Winterthur, ZH;47.50136948;8.720936775;Winterthur;230
1693998224-135;Am Eulachpark 25, 8404 Winterthur, ZH;47.50632477;8.76371479;Winterthur;230
1693998224-138;Pfingstweidstrasse 98, 8005 Zürich, ZH;47.39064026;8.510338783;Zürich;261
1693998224-139;Wolfgrabenstrasse 15c, 8135 Langnau am Albis, ZH;47.28543091;8.530309677;Langnau am Albis;136
1693998224-140;Eilweg 8, 8634 Hombrechtikon, ZH;47.24886322;8.772636414;Hombrechtikon;153
1693998224-141;Katharina Sulzer Platz 2, 8400 Winterthur, ZH;47.49661255;8.718550682;Winterthur;230
1693998224-143;Mühlebachstr. 28, 8008 Zürich, ZH;47.36485672;8.550126076;Zürich;261
1693998224-144;Dättlikonerstrasse 4, 8422 Pfungen, ZH;47.51791382;8.638660431;Pfungen;224
1693998228-146;Vulkanstrasse 110c, 8048 Zürich, ZH;47.39374924;8.484014511;Zürich;261
1693998228-147;Wehntalerstrasse 38, 8157 Dielsdorf, ZH;47.48212433;8.45338726;Dielsdorf;86
1693998228-148;8004 Zürich, ZH;47.38041687;8.525351524;Zürich;261
1693998228-149;Brunnenwiesenstrasse 15, 8105 Regensdorf, ZH;47.4283371;8.480559349;Regensdorf;96
1693998228-150;Dorfstrasse 10, 8181 Höri, ZH;47.50333786;8.497507095;Höri;60
1693998228-151;Goldbühlstrasse 15, 8620 Wetzikon ZH, ZH;47.32805634;8.806318283;Wetzikon (ZH);121
1693998228-152;Dorfstrasse 10, 8181 Höri, ZH;47.50333786;8.497507095;Höri;60
1693998228-153;Tannenstrasse 8, 8442 Hettlingen, ZH;47.54757309;8.715942383;Hettlingen;221
1693998228-154;Alte Obfelderstrasse 21, 8910 Affoltern am Albis, ZH;47.2754364;8.445223808;Affoltern am Albis;2
1693998228-155;Kirchstrasse 5, 8805 Richterswil, ZH;47.20791245;8.704605103;Richterswil;138
1693998228-156;8046 Zürich, ZH;47.41517258;8.527069092;Zürich;261
1693998228-157;Rudolfingerstrasse 8, 8465 Wildensbuch, ZH;47.65116882;8.675714493;Trüllikon;40
1693998228-158;Hildastrasse 1, 8004 Zürich, ZH;47.37620163;8.516153336;Zürich;261
1693998228-159;Im Feld 10, 8180 Bülach, ZH;47.51148605;8.539093971;Bülach;53
1693998228-160;8615 Wermatswil, ZH;47.36240768;8.747447968;Uster;198
1693998228-161;8046 Zürich, ZH;47.41517258;8.527069092;Zürich;261
1693998228-162;8816 Hirzel, ZH;47.21183395;8.608362198;Horgen;295
1693998228-163;8032 Zürich, ZH;47.3658638;8.552139282;Zürich;261
1693998228-164;Eichstrasse 7, 8712 Stäfa, ZH;47.23812485;8.73893261;Stäfa;158
1693998228-165;Wybüelstrasse 16, 8702 Zollikon, ZH;47.3437233;8.577806473;Zollikon;161
1693998228-166;Zürcherstrasse 143, 8406 Winterthur, ZH;47.49033737;8.705376625;Winterthur;230
1693998228-167;Wilhofstrasse 4, 8332 Russikon, ZH;47.39202118;8.775553703;Russikon;178
1693998228-168;Untere Schärerstrasse 6, 8352 Elsau, ZH;47.50057602;8.800123215;Elsau;219
1693998233-169;Schweizäckerstrasse 14, 8955 Oetwil an der Limmat, ZH;47.42378616;8.403396606;Oetwil an der Limmat;246
1693998233-171;Landstrasse 28, 8450 Andelfingen, ZH;47.59244156;8.679210663;Andelfingen;30
1693998233-172;Widacherstrasse 5, 8630 Rüti ZH, ZH;47.25208664;8.854919434;Rüti (ZH);118
1693998233-173;Bahnhofstrasse 83, 8245 Feuerthalen, ZH;47.68774796;8.649845123;Feuerthalen;27
1693998233-174;Loowiesenstrasse 41, 8106 Adlikon b. Regensdorf, ZH;47.45358276;8.46252346;Regensdorf;96
1693998233-176;8636 Wald ZH, ZH;47.27400589;8.915390968;Wald (ZH);120
1693998233-177;Bucheggstrasse 130, 8057 Zürich, ZH;47.39831924;8.538369179;Zürich;261
1693998233-178;Bucheggstrasse 130, 8057 Zürich, ZH;47.39831924;8.538369179;Zürich;261
1693998233-180;8421 Dättlikon, ZH;47.52352142;8.610370636;Dättlikon;215
1693998233-181;Zugerstrasse 37, 8820 Wädenswil, ZH;47.22987366;8.66808033;Wädenswil;293
1693998233-182;8175 Windlach, ZH;47.54396439;8.486028671;Stadel;100
1693998233-184;Kelchweg 1, 8048 Zürich, ZH;47.38985443;8.480420113;Zürich;261
1693998233-185;Bernhofstrasse 52, 8134 Adliswil, ZH;47.30489731;8.521225929;Adliswil;131
1693998233-186;Segel, 6, 8825 Hütten, ZH;47.18066788;8.656099319;Wädenswil;293
1693998233-187;Ländischstrasse 132, 8706 Meilen, ZH;47.27481461;8.627966881;Meilen;156
1693998233-188;Sonnenbergstrasse 3, 8603 Schwerzenbach, ZH;47.38380051;8.649947166;Schwerzenbach;197
1693998233-189;Bahnhofstrasse 99i, 8620 Wetzikon ZH, ZH;47.32447815;8.79788208;Wetzikon (ZH);121
1693998233-191;Am Holbrig 2, 8049 Zürich, ZH;47.40501404;8.49571991;Zürich;261
1693998233-192;8942 Oberrieden, ZH;47.27335358;8.564094543;Oberrieden;137
1693998236-193;Wolframplatz 1, 8045 Zürich, ZH;47.3622818;8.522192955;Zürich;261
1693998236-195;Äussere Vordergasse 11, 8353 Elgg, ZH;47.49110413;8.868546486;Elgg;294
1693998236-196;Sellenbüren 2, 8143 Stallikon, ZH;47.34522629;8.479542732;Stallikon;13
1693998236-197;Utoquai 37, 8008 Zürich, ZH;47.36368179;8.546780586;Zürich;261
1693998236-198;Vogtmühlestrasse 2, 8173 Neerach, ZH;47.51044464;8.469561577;Neerach;88
1693998236-199;Buechenstrasse 14, 8174 Stadel b. Niederglatt, ZH;47.5317421;8.465595245;Stadel;100
1693998236-200;Lindenstr. 17, 8302 Kloten, ZH;47.44934464;8.583712578;Kloten;62
1693998236-201;8400 Winterthur, ZH;47.49886703;8.72268486;Winterthur;230
1693998236-202;Fangletenstrasse 6, 8180 Bülach, ZH;47.52735138;8.538234711;Bülach;53
1693998236-203;Poststrasse, 8610 Uster, ZH;47.34986877;8.718284607;Uster;198
1693998236-204;Badenerstrasse 123, 8004 Zürich, ZH;47.37415695;8.523697853;Zürich;261
1693998236-205;Alte Landstrasse, 8702 Zollikon, ZH;47.34526825;8.569451332;Zollikon;161
1693998236-207;Etzelstrasse 35, 8038 Zürich, ZH;47.34654617;8.530694962;Zürich;261
1693998236-208;Rosengartenstrasse 55, 8037 Zürich, ZH;47.39588928;8.529163361;Zürich;261
1693998236-209;Eidmattstrasse 38, 8032 Zürich, ZH;47.36497498;8.560164452;Zürich;261
1693998236-211;zürichstrasse 157, 8910 Affoltern am Albis, ZH;47.28336334;8.453010559;Affoltern am Albis;2
1693998236-212;Willikonerstrasse 52, 8618 Oetwil am See, ZH;47.26665115;8.727725029;Oetwil am See;157
1693998236-214;Thesenacher 6, 8126 Zumikon, ZH;47.32744217;8.633702278;Zumikon;160
1693998236-215;8404 Winterthur, ZH;47.51652908;8.757117271;Winterthur;230
1693998236-216;Schöneggstr. 51, 8953 Dietikon, ZH;47.39987564;8.408111572;Dietikon;243
1693998240-217;Glärnischstrasse 37, 8810 Horgen, ZH;47.25603867;8.606203079;Horgen;295
1693998240-218;Hint. Grundstr. 26, 8320 Fehraltorf, ZH;47.38629913;8.758942604;Fehraltorf;172
1693998240-219;Hint. Grundstr. 22, 8320 Fehraltorf, ZH;47.38653564;8.758410454;Fehraltorf;172
1693998240-220;Rütibuckstrasse 6, 8248 Uhwiesen, ZH;47.67509079;8.631156921;Laufen-Uhwiesen;34
1693998240-221;Seerenstrasse 14, 8187 Weiach, ZH;47.56271362;8.427143097;Weiach;102
1693998240-222;Burbelweg 2a, 8154 Oberglatt ZH, ZH;47.48086929;8.508453369;Oberglatt;92
1693998240-224;Eichwisstrasse, 8634 Hombrechtikon, ZH;47.25366211;8.780940056;Hombrechtikon;153
1693998240-225;Untere Bühlenstrasse 9, 8708 Männedorf, ZH;47.25941467;8.686032295;Männedorf;155
1693998240-228;St. Urbangasse 8, 8001 Zürich, ZH;47.36716461;8.546512604;Zürich;261
1693998240-229;Hagenholzstrasse 59, 8050 Zürich, ZH;47.41465759;8.555407524;Zürich;261
1693998240-231;Susenbergstrasse 142, 8044 Zürich, ZH;47.38476181;8.559498787;Zürich;261
1693998240-235;Bahnhofstrasse 19, 8803 Rüschlikon, ZH;47.31246567;8.554110527;Rüschlikon;139
1693998240-236;Weststrasse 50, 8620 Wetzikon ZH, ZH;47.32775116;8.7946558;Wetzikon (ZH);121
1693998243-242;Zürichstrasse 87, 8600 Dübendorf, ZH;47.39490891;8.606677055;Dübendorf;191
1693998243-243;8154 Oberglatt ZH, ZH;47.48006821;8.524243355;Oberglatt;92
1693998243-244;8180 Bülach, ZH;47.52003098;8.566342354;Bülach;53
1693998243-245;Zelgliweg 5, 8311 Brütten, ZH;47.47098541;8.672099113;Brütten;213
1693998243-246;Albisstrasse 9, 8038 Zürich, ZH;47.34455872;8.533279419;Zürich;261
1693998243-247;Haldenstrasse, 8045 Zürich, ZH;47.36302185;8.518438339;Zürich;261
1693998243-248;Hirschweg 33, 8405 Winterthur, ZH;47.48129654;8.770056725;Winterthur;230
1693998243-249;Badenerstrasse 841, 8048 Zürich, ZH;47.39337921;8.472841263;Zürich;261
1693998243-251;Euelstrasse  56, 8408 Winterthur, ZH;47.51079941;8.680351257;Winterthur;230
1693998243-252;Erlenweg 7, 8700 Küsnacht ZH, ZH;47.31021118;8.588823318;Küsnacht (ZH);154
1693998243-253;Lindenbachstrasse 52, 8006 Zürich, ZH;47.38967896;8.536903381;Zürich;261
1693998243-256;Hammerweg 1, 8404 Winterthur, ZH;47.50463867;8.749406815;Winterthur;230
1693998243-257;Schlossbachstrasse 24, 8620 Wetzikon ZH, ZH;47.32216263;8.798130035;Wetzikon (ZH);121
1693998243-258;Limmatstrasse 260, 8005 Zürich, ZH;47.38913345;8.525841713;Zürich;261
1693998243-259;Kanzleistrasse 15, 8418 Schlatt ZH, ZH;47.46419907;8.845925331;Schlatt (ZH);226
1693998243-262;Bühlstrasse 5, 8125 Zollikerberg, ZH;47.34742355;8.605626106;Zollikon;161
1693998243-263;Bahnhofstr. 57, 8902 Urdorf, ZH;47.38595581;8.427886009;Urdorf;250
1693998247-265;8053 Zürich, ZH;47.35861588;8.578998566;Zürich;261
1693998247-266;Heidwiesen 19, 8051 Zürich, ZH;47.40749359;8.57597065;Zürich;261
1693998247-267;8002 Zürich, ZH;47.3610611;8.532576561;Zürich;261
1693998247-269;Huebwisstrasse 12, 8117 Fällanden, ZH;47.37641525;8.640762329;Fällanden;193
1693998247-270;Murzlenstrasse 5, 8166 Niederweningen, ZH;47.5065918;8.376549721;Niederweningen;91
1693998247-271;Altstetterstrasse 288, 8047 Zürich, ZH;47.37856674;8.483046532;Zürich;261
1693998247-276;8910 Affoltern am Albis, ZH;47.27145767;8.438882828;Obfelden;10
1693998247-278;8184 Bachenbülach, ZH;47.50405121;8.544760704;Bachenbülach;51
1693998247-279;Sonnenrainweg 9, 8824 Schönenberg ZH, ZH;47.19355011;8.643131256;Wädenswil;293
1693998247-280;8181 Höri, ZH;47.50917816;8.503972054;Höri;60
1693998247-281;8603 Schwerzenbach, ZH;47.38341522;8.662425041;Schwerzenbach;197
1693998247-283;Immenhauserstrasse 10, 8600 Dübendorf, ZH;47.39925003;8.628621101;Dübendorf;191
1693998247-284;Glatttalstrasse 163, 8052 Zürich, ZH;47.43130493;8.543539047;Zürich;261
1693998247-285;In der Höh 5, 8604 Volketswil, ZH;47.38458633;8.669207573;Volketswil;199
1693998247-286;8053 Zürich, ZH;47.35861588;8.578998566;Zürich;261
1693998247-287;8115 Hüttikon, ZH;47.44529724;8.387365341;Hüttikon;87
1693998247-288;Oberwiesenstrasse 67, 8050 Zürich, ZH;47.4116745;8.531891823;Zürich;261
1693998252-289;Hammerstrasse 54b, 8032 Zürich, ZH;47.36020279;8.562192917;Zürich;261
1693998252-290;Hinterdorfstrasse 2, 8914 Aeugst am Albis, ZH;47.26818848;8.485293388;Aeugst am Albis;1
1693998252-291;Römerhof 1, 8353 Elgg, ZH;47.50267792;8.858933449;Elgg;294
1693998252-292;Scheideggstrasse 70, 8002 Zürich, ZH;47.35327148;8.528915405;Zürich;261
1693998252-293;Vogtmühlestrasse 2, 8173 Neerach, ZH;47.51044464;8.469561577;Neerach;88
1693998252-294;Glärnischstrasse 62, 8618 Oetwil am See, ZH;47.27785873;8.7202034;Oetwil am See;157
1693998252-295;Am Balsberg 32, 8302 Kloten, ZH;47.44306946;8.576788902;Kloten;62
1693998252-296;Posilipostrasse 10, 8800 Thalwil, ZH;47.2844429;8.574564934;Thalwil;141
1693998252-297;Langenweg 12, 8428 Teufen ZH, ZH;47.54861069;8.570264816;Freienstein-Teufen;57
1693998252-298;Hauptstrasse 1e, 8544 Attikon, ZH;47.53627014;8.795984268;Wiesendangen;298
1693998252-299;8048 Zürich, ZH;47.38897705;8.486362457;Zürich;261
1693998252-300;8055 Zürich, ZH;47.36334991;8.505910873;Zürich;261
1693998252-301;Friesenbergstrasse 221, 8055 Zürich, ZH;47.36202621;8.504245758;Zürich;261
1693998252-302;Obere Kirchgasse 8, 8706 Meilen, ZH;47.27129745;8.64195919;Meilen;156
1693998252-303;Fritz-Fleiner-Weg, 8044 Zürich, ZH;47.38193512;8.560834885;Zürich;261
1693998252-304;Ringstrasse 1, 8952 Schlieren, ZH;47.39822388;8.447646141;Schlieren;247
1693998252-306;Seestrasse 13, 8800 Thalwil, ZH;47.2825737;8.578234673;Thalwil;141
1693998252-308;Rosengartenstrasse 55, 8037 Zürich, ZH;47.39588928;8.529163361;Zürich;261
1693998252-309;8046 Zürich, ZH;47.41517258;8.527069092;Zürich;261
1693998252-311;Friedrichstrasse 24, 8051 Zürich, ZH;47.40500641;8.569589615;Zürich;261
1693998252-312;8600 Dübendorf, ZH;47.39389801;8.592878342;Dübendorf;191
1693998256-313;Edikerstrasse 14, 8635 Dürnten, ZH;47.28050995;8.84348011;Dürnten;113
1693998256-315;Rietstrasse 7A, 8700 Küsnacht ZH, ZH;47.32919312;8.6051054;Küsnacht (ZH);154
1693998256-316;Rainstrasse 80, 8712 Stäfa, ZH;47.24862671;8.720181465;Stäfa;158
1693998256-317;Vulkanstrasse 110c, 8048 Zürich, ZH;47.39374924;8.484014511;Zürich;261
1693998256-318;Kanzleistrasse 15, 8418 Schlatt ZH, ZH;47.46419907;8.845925331;Schlatt (ZH);226
1693998256-319;Dübendorfstrasse 22, 8602 Wangen b. Dübendorf, ZH;47.40997314;8.64249897;Wangen-Brüttisellen;200
1693998256-320;Obstgartenstr. 30, 8136 Gattikon, ZH;47.28390503;8.549808502;Thalwil;141
1693998256-321;Rütenenweg 14, 8245 Feuerthalen, ZH;47.6882515;8.642364502;Feuerthalen;27
1693998256-322;Leingrüeblerstrasse 12, 8542 Wiesendangen, ZH;47.52568054;8.781398773;Wiesendangen;298
1693998256-323;Grüningerstrasse 6, 8133 Esslingen, ZH;47.28868866;8.712890625;Egg;192
1693998256-324;Gartematt 12, 8180 Bülach, ZH;47.51938248;8.542832375;Bülach;53
1693998256-325;Seidenstr. 12, 8600 Dübendorf, ZH;47.40465927;8.606596947;Dübendorf;191
1693998256-326;Wildenbühlstr. 15, 8135 Langnau am Albis, ZH;47.28489304;8.535119057;Langnau am Albis;136
1693998256-327;Grosswiesenstr. 67, 8422 Pfungen, ZH;47.51743317;8.640844345;Pfungen;224
1693998256-328;Albisstrasse 10, 8038 Zürich, ZH;47.34488678;8.533081055;Zürich;261
1693998256-329;Gerichtshausstr. 3, 8340 Hinwil, ZH;47.30440521;8.845050812;Hinwil;117
1693998256-330;Endlikerstrasse 65, 8400 Winterthur, ZH;47.48929596;8.748123169;Winterthur;230
1693998256-331;Widenweg 14, 8630 Rüti ZH, ZH;47.25366974;8.853993416;Rüti (ZH);118
1693998256-332;Wolframplatz 1, 8045 Zürich, ZH;47.3622818;8.522192955;Zürich;261
1693998261-339;8932 Mettmenstetten, ZH;47.24298859;8.458034515;Mettmenstetten;9
1693998261-340;Hofwiesenstrasse 165, 8057 Zürich, ZH;47.40107727;8.533770561;Zürich;261
1693998261-341;8152 Opfikon, ZH;47.4307518;8.577886581;Opfikon;66
1693998261-342;8004 Zürich, ZH;47.38041687;8.525351524;Zürich;261
1693998261-343;Püntenstrasse 12, 8143 Stallikon, ZH;47.32553101;8.489510536;Stallikon;13
1693998261-345;8404 Winterthur, ZH;47.51652908;8.757117271;Winterthur;230
1693998261-346;Oberer Graben 34, 8400 Winterthur, ZH;47.49942017;8.731341362;Winterthur;230
1693998261-347;8032 Zürich, ZH;47.3658638;8.552139282;Zürich;261
1693998261-349;Zimmergasse 8, 8008 Zürich, ZH;47.36309052;8.550751686;Zürich;261
1693998261-350;Steinmaurstrasse 19B, 8173 Neerach, ZH;47.51190186;8.470452309;Neerach;88
1693998261-351;Steig 37, 8193 Eglisau, ZH;47.57766724;8.520560265;Eglisau;55
1693998261-352;Auhofstrasse 5, 8051 Zürich, ZH;47.40662766;8.568728447;Zürich;261
1693998261-353;Witikonerstrasse 54, 8032 Zürich, ZH;47.36197662;8.568775177;Zürich;261
1693998261-354;Seestrasse 25, 8002 Zürich, ZH;47.36352921;8.531552315;Zürich;261
1693998261-355;Schaffhauserstrasse 129, 8152 Glattbrugg, ZH;47.43526459;8.567454338;Opfikon;66
1693998261-357;Schlosshofstrasse 19, 8400 Winterthur, ZH;47.49517441;8.71133709;Winterthur;230
1693998261-358;Bassersdorferstrasse 9, 8305 Dietlikon, ZH;47.42808151;8.619171143;Dietlikon;54
1693998261-360;Gernstrasse 32, 8409 Winterthur, ZH;47.50617218;8.774675369;Winterthur;230
1693998265-362;Nauenstrasse 42, 8632 Tann, ZH;47.27296066;8.856590271;Dürnten;113
1693998265-363;Zurlindenstrasse, 8003 Zürich, ZH;47.36738968;8.523022652;Zürich;261
1693998265-364;Seefeldstrasse, 8008 Zürich, ZH;47.36523819;8.548137665;Zürich;261
1693998265-365;Gustav-Gull-Platz 4, 8004 Zürich, ZH;47.37947083;8.5311203;Zürich;261
1693998265-366;Engweg 8, 8006 Zürich, ZH;47.38526535;8.537631989;Zürich;261
1693998265-368;Zollikerstrasse 227, 8008 Zürich, ZH;47.34885406;8.565671921;Zürich;261
1693998265-369;Gotthelfstrasse 41, 8003 Zürich, ZH;47.36850739;8.521334648;Zürich;261
1693998265-370;Albisstrasse 51, 8134 Adliswil, ZH;47.30401611;8.522690773;Adliswil;131
1693998265-371;Möslistrasse 6, 8155 Niederhasli, ZH;47.48141098;8.496412277;Niederhasli;90
1693998265-373;Forchstrasse 84, 8008 Zürich, ZH;47.36206818;8.55924511;Zürich;261
1693998265-374;Landstrasse 28, 8450 Andelfingen, ZH;47.59244156;8.679210663;Andelfingen;30
1693998265-375;Pfarrhausweg 3, 8914 Aeugst am Albis, ZH;47.26779938;8.486969948;Aeugst am Albis;1
1693998265-378;8304 Wallisellen, ZH;47.41723251;8.589406967;Wallisellen;69
1693998265-379;Gumpenwisenstrasse 10, 8166 Niederweningen, ZH;47.50951767;8.378198624;Niederweningen;91
1693998265-380;Schwyzerstr. 7, 8805 Richterswil, ZH;47.20464325;8.707936287;Richterswil;138
1693998265-381;Rain 1, 8630 Rüti ZH, ZH;47.25983429;8.851704597;Rüti (ZH);118
1693998265-382;8153 Rümlang, ZH;47.45495605;8.524186134;Rümlang;97
1693998265-383;Forchstrasse 129b, 8127 Forch, ZH;47.32352448;8.656710625;Maur;195
1693998265-384;Zelglistrasse 5a, 8175 Windlach, ZH;47.53774261;8.467618942;Stadel;100
1693998272-385;Kirchweg 91, 8245 Feuerthalen, ZH;47.68903732;8.649232864;Feuerthalen;27
1693998272-386;Alte Dorfstrasse 28, 8910 Affoltern am Albis, ZH;47.27804947;8.454066277;Affoltern am Albis;2
1693998272-387;Sonnhaldenstrasse 2, 8032 Zürich, ZH;47.36660385;8.561936378;Zürich;261
1693998272-388;Plattenstr. 34, 8032 Zürich, ZH;47.37311554;8.553730965;Zürich;261
1693998272-389;Luegislandstrasse 80, 8051 Zürich, ZH;47.40677643;8.568400383;Zürich;261
1693998272-390;Limmattalstrasse 244, 8049 Zürich, ZH;47.40287018;8.493392944;Zürich;261
1693998272-392;Grubenackerstrasse 71, 8052 Zürich, ZH;47.41893387;8.552834511;Zürich;261
1693998272-393;Grubenackerstrasse 71, 8052 Zürich, ZH;47.41893387;8.552834511;Zürich;261
1693998272-394;Hinter Zünen 9, 8702 Zollikon, ZH;47.34143448;8.575063705;Zollikon;161
1693998272-395;Säntisstrasse 6, 8302 Kloten, ZH;47.45159149;8.592599869;Kloten;62
1693998272-397;Rickenstrasse 5, 8634 Hombrechtikon, ZH;47.25240707;8.780772209;Hombrechtikon;153
1693998272-398;Ernst-Jung-Gasse 18, 8400 Winterthur, ZH;47.49565506;8.71457386;Winterthur;230
1693998272-399;Schaffhauserstrasse 129, 8152 Glattbrugg, ZH;47.43526459;8.567454338;Opfikon;66
1693998272-400;Badenerstrasse 110, 8952 Schlieren, ZH;47.39788437;8.431954384;Schlieren;247
1693998272-402;Max Bill Platz 5, 8050 Zürich, ZH;47.4138031;8.539403915;Zürich;261
1693998272-404;Kalkbreitestrasse 117, 8003 Zürich, ZH;47.37115097;8.5154562;Zürich;261
1693998272-405;Soodstrasse 14, 8134 Adliswil, ZH;47.31591797;8.525667191;Adliswil;131
1693998272-406;Neumarkt 7, 8400 Winterthur, ZH;47.49863052;8.72617054;Winterthur;230
1693998272-407;Hettlingerstrasse 1, 8472 Seuzach, ZH;47.5373497;8.729271889;Seuzach;227
1693998272-408;8426 Lufingen, ZH;47.47311401;8.60280323;Lufingen;63
1693998276-410;Bodenacherstrasse 18, 8121 Benglen, ZH;47.36153793;8.635826111;Fällanden;193
1693998276-412;Am Holbrig 12, 8049 Zürich, ZH;47.40464401;8.496613503;Zürich;261
1693998276-413;Spichergasse 3, 8185 Winkel, ZH;47.49074936;8.554258347;Winkel;72
1693998276-414;Chüngstrasse 31, 8424 Embrach, ZH;47.50494003;8.602650642;Embrach;56
1693998276-415;Bergstrasse 76, 8032 Zürich, ZH;47.37108994;8.562350273;Zürich;261
1693998276-417;Nordstrasse 15, 8180 Bülach, ZH;47.52280807;8.53650856;Bülach;53
1693998276-418;Reismühlestr. 3, 8409 Winterthur, ZH;47.50662231;8.767665863;Winterthur;230
1693998276-419;Bachtelstrasse 24b, 8630 Rüti ZH, ZH;47.26611328;8.866871834;Rüti (ZH);118
1693998276-420;Aspbachstrasse 2, 8426 Lufingen, ZH;47.48693848;8.592018127;Lufingen;63
1693998276-421;Seestrasse 27, 8002 Zürich, ZH;47.36330032;8.531541824;Zürich;261
1693998276-422;Blumenweg 17, 8810 Horgen, ZH;47.25527191;8.606227875;Horgen;295
1693998276-423;Genferstr. 24, 8002 Zürich, ZH;47.36535263;8.534263611;Zürich;261
1693998276-425;Am Wasser 161, 8049 Zürich, ZH;47.39943695;8.495816231;Zürich;261
1693998276-426;Badenerstrasse 250, 8004 Zürich, ZH;47.37598801;8.516037941;Zürich;261
1693998276-428;Am Wasser 161, 8049 Zürich, ZH;47.39943695;8.495816231;Zürich;261
1693998276-429;Wässerwiesenstrasse 22, 8408 Winterthur, ZH;47.50918961;8.689857483;Winterthur;230
1693998276-430;Brown Boveri-Str. 12, 8050 Zürich, ZH;47.41577911;8.5368433;Zürich;261
1693998276-431;Kasernenstrasse 70, 8180 Bülach, ZH;47.5163269;8.531111717;Bülach;53
1693998276-432;Birchstrasse 98, 8050 Zürich, ZH;47.40781403;8.536985397;Zürich;261
1693998280-433;8907 Wettswil, ZH;47.33167267;8.475844383;Wettswil am Albis;14
1693998280-434;Neugasse 40, 8005 Zürich, ZH;47.38246918;8.530179977;Zürich;261
1693998280-435;Alte Zwillikerstrasse 9, 8908 Hedingen, ZH;47.29549026;8.44713974;Hedingen;5
1693998280-436;Wurmbühlstrasse 10, 8405 Winterthur, ZH;47.48939133;8.761971474;Winterthur;230
1693998280-437;8810 Horgen, ZH;47.26087952;8.599017143;Horgen;295
1693998280-438;Bachwiesenstr. 119, 8047 Zürich, ZH;47.37694931;8.484875679;Zürich;261
1693998280-440;Sägereistrasse 12, 8135 Langnau am Albis, ZH;47.29189682;8.524370193;Langnau am Albis;136
1693998280-441;Neuhausstrasse 11, 8044 Zürich, ZH;47.37740707;8.56416893;Zürich;261
1693998280-443;Robert-Walser-Strasse 46, 8820 Wädenswil, ZH;47.23571396;8.653085709;Wädenswil;293
1693998280-444;Schweizäckerstrasse 12, 8955 Oetwil an der Limmat, ZH;47.42401886;8.403019905;Oetwil an der Limmat;246
1693998280-445;Felmisstrasse 48, 8494 Bauma, ZH;47.37550735;8.854137421;Bauma;297
1693998280-446;Brandrietstrasse 27, 8307 Effretikon, ZH;47.42490005;8.687599182;Illnau-Effretikon;296
1693998280-447;Grabenwiese 2, 8484 Weisslingen, ZH;47.4267807;8.767585754;Weisslingen;180
1693998280-448;Letzacherstrasse 4, 8117 Fällanden, ZH;47.37361908;8.634839058;Fällanden;193
1693998280-449;Am Wasser, 8049 Zürich, ZH;47.39522171;8.512446404;Zürich;261
1693998280-450;Döltschiweg 39, 8055 Zürich, ZH;47.36728668;8.50819397;Zürich;261
1693998280-451;Zurlindenstrasse 111, 8003 Zürich, ZH;47.37103271;8.51872921;Zürich;261
1693998280-452;8606 Nänikon, ZH;47.37546921;8.690289497;Uster;198
1693998280-453;Dienerstrasse 59, 8004 Zürich, ZH;47.37880707;8.526125908;Zürich;261
1693998280-454;Rohrstrasse 26, 8152 Opfikon, ZH;47.43556976;8.564105988;Opfikon;66
1693998280-455;Rohrstrasse 26, 8152 Opfikon, ZH;47.43556976;8.564105988;Opfikon;66
1693998280-456;Allmendstrasse 32, 8180 Bülach, ZH;47.51484299;8.533146858;Bülach;53
1693998285-457;Surbgasse 9, 8166 Niederweningen, ZH;47.50879669;8.37475872;Niederweningen;91
1693998285-459;Meientalstrasse 71, 8048 Zürich, ZH;47.3861084;8.477628708;Zürich;261
1693998285-460;Meientalstrasse 71, 8048 Zürich, ZH;47.3861084;8.477628708;Zürich;261
1693998285-466;Fronwaldweg 22, 8046 Zürich, ZH;47.42396164;8.509985924;Zürich;261
1693998285-467;8618 Oetwil am See, ZH;47.27054977;8.739869118;Oetwil am See;157
1693998285-468;8912 Obfelden, ZH;47.26014328;8.42961216;Obfelden;10
1693998285-469;8175 Windlach, ZH;47.54396439;8.486028671;Stadel;100
1693998285-472;Plattenstrasse 5, 8152 Glattbrugg, ZH;47.43585968;8.565537453;Opfikon;66
1693998285-475;Universitätstrasse 41, 8006 Zürich, ZH;47.38043976;8.547943115;Zürich;261
1693998285-477;Birchstrasse 183A, 8050 Zürich, ZH;47.41421127;8.537707329;Zürich;261
1693998285-478;Im Zentrum 12, 8634 Hombrechtikon, ZH;47.25249863;8.767959595;Hombrechtikon;153
1693998285-479;8162 Steinmaur, ZH;47.48539734;8.444293976;Steinmaur;101
1693998285-480;Hasenbühlweg 12, 8302 Kloten, ZH;47.44351196;8.580924988;Kloten;62
1693998289-481;Höglerstr. 32, 8600 Dübendorf, ZH;47.39236832;8.613376617;Dübendorf;191
1693998289-482;Lärchenstrasse 6, 8442 Hettlingen, ZH;47.5478363;8.717198372;Hettlingen;221
1693998289-483;Letzigraben 236, 8047 Zürich, ZH;47.37076569;8.49247551;Zürich;261
1693998289-484;Kirchstrasse 12, 8245 Feuerthalen, ZH;47.69120407;8.637242317;Feuerthalen;27
1693998289-485;Pflugstr. 18, 8006 Zürich, ZH;47.39047241;8.538491249;Zürich;261
1693998289-486;Zielstrasse 13, 8400 Winterthur, ZH;47.51123047;8.719283104;Winterthur;230
1693998289-487;Einsiedlerstrasse 35, 8810 Horgen, ZH;47.26685333;8.584843636;Horgen;295
1693998289-488;Kanalweg 2, 8610 Uster, ZH;47.34582138;8.726376534;Uster;198
1693998289-490;Schlosshofstrasse 21, 8400 Winterthur, ZH;47.49552917;8.711296082;Winterthur;230
1693998289-491;Sonnenmatt 8, 8136 Gattikon, ZH;47.28419876;8.546068192;Thalwil;141
1693998289-492;Vorbruggenstrasse 9, 8422 Pfungen, ZH;47.5189743;8.638788223;Pfungen;224
1693998289-493;Heiselstrasse 120, 8155 Niederhasli, ZH;47.48178864;8.497633934;Niederhasli;90
1693998289-494;Landvogt-Waser-Strasse 69, 8405 Winterthur, ZH;47.48572922;8.766179085;Winterthur;230
1693998289-495;Baumackerstrasse 47, 8050 Zürich, ZH;47.4094429;8.54227829;Zürich;261
1693998289-496;Bachtalenstrasse 4, 8908 Hedingen, ZH;47.30091476;8.451602936;Hedingen;5
1693998289-497;Gattikonerstr. 101, 8136 Gattikon, ZH;47.28419495;8.548237801;Thalwil;141
1693998289-498;Römerstr. 128, 8404 Winterthur, ZH;47.50593567;8.752595901;Winterthur;230
1693998289-500;Hittnauerstrasse 1a, 8330 Pfäffikon ZH, ZH;47.3654213;8.786971092;Pfäffikon;177
1693998289-501;Meierackerstr. 4, 8610 Uster, ZH;47.36004257;8.716106415;Uster;198
1693998289-502;Luegislandstrasse 84, 8051 Zürich, ZH;47.40720749;8.568411827;Zürich;261
1693998289-503;Mülliweiherstrasse 5, 8162 Steinmaur, ZH;47.49015808;8.439418793;Steinmaur;101
1693998289-504;Segantinistrasse 15, 8049 Zürich, ZH;47.40447235;8.501478195;Zürich;261
1693998294-505;Hohfurristrasse 91, 8408 Winterthur, ZH;47.50564194;8.696372032;Winterthur;230
1693998294-506;Kolbenacker 6, 8052 Zürich, ZH;47.42618942;8.548309326;Zürich;261
1693998294-507;Rietholzstr. 60, 8125 Zollikerberg, ZH;47.34309387;8.598343849;Zollikon;161
1693998294-508;Steinwiesstrasse 63, 8032 Zürich, ZH;47.37158585;8.555725098;Zürich;261
1693998294-509;Neugasse 31, 8810 Horgen, ZH;47.25810242;8.588020325;Horgen;295
1693998294-510;Rohrstrasse 2, 8152 Glattbrugg, ZH;47.43501282;8.566745758;Opfikon;66
1693998294-511;Wolfbachstrasse 18, 8032 Zürich, ZH;47.37040329;8.551278114;Zürich;261
1693998294-513;Neugutstrasse 25, 8304 Wallisellen, ZH;47.41239166;8.595873833;Wallisellen;69
1693998294-514;Espenstrasse 91, 8408 Winterthur, ZH;47.5079155;8.679285049;Winterthur;230
1693998294-515;Im Grund 21, 8424 Embrach, ZH;47.50799942;8.59709549;Embrach;56
1693998294-516;Am Holbrig 11, 8049 Zürich, ZH;47.4050827;8.496919632;Zürich;261
1693998294-517;Badenerstrasse  250, 8004 Zürich, ZH;47.37598801;8.516037941;Zürich;261
1693998294-518;Badenerstrasse  250, 8004 Zürich, ZH;47.37598801;8.516037941;Zürich;261
1693998294-519;Pfäffikerstrasse 112, 8605 Gutenswil, ZH;47.38589478;8.71959877;Volketswil;199
1693998294-520;Hörnlistrasse 85, 8400 Winterthur, ZH;47.4885025;8.753537178;Winterthur;230
1693998294-523;Zeltweg 43, 8610 Uster, ZH;47.34960938;8.708863258;Uster;198
1693998294-524;Müllerwis 19, 8606 Greifensee, ZH;47.37051392;8.68149662;Greifensee;194
1693998294-525;Bachtelstrasse 50, 8810 Horgen, ZH;47.24749756;8.609658241;Horgen;295
1693998294-527;Freiestrasse 182A, 8032 Zürich, ZH;47.36207199;8.563936234;Zürich;261
1693998294-528;8048 Zürich, ZH;47.38897705;8.486362457;Zürich;261
1693998297-529;Feldstrasse 11, 8400 Winterthur, ZH;47.5084877;8.718109131;Winterthur;230
1693998297-530;Meientalstrasse 71, 8048 Zürich, ZH;47.3861084;8.477628708;Zürich;261
1693998297-531;Meientalstrasse 71a, 8048 Zürich, ZH;47.38596725;8.477527618;Zürich;261
1693998297-532;Seestrasse 807, 8706 Meilen, ZH;47.26577377;8.653788567;Meilen;156
1693998297-533;Tobelacherweg 19, 8332 Rumlikon, ZH;47.40826416;8.76249218;Russikon;178
1693998297-534;8038 Zürich, ZH;47.34108734;8.535780907;Zürich;261
1693998297-535;8008 Zürich, ZH;47.35414886;8.560637474;Zürich;261
1693998297-536;8620 Wetzikon ZH, ZH;47.30898285;8.79793644;Wetzikon (ZH);121
1693998297-537;Adlergasse 1, 8245 Feuerthalen, ZH;47.69389343;8.641320229;Feuerthalen;27
1693998297-538;Lättenstrasse 22, 8952 Schlieren, ZH;47.40343857;8.4405756;Schlieren;247
1693998297-539;Badenerstrasse 803, 8048 Zürich, ZH;47.39271927;8.474808693;Zürich;261
1693998297-540;Badenerstrasse 803, 8048 Zürich, ZH;47.39271927;8.474808693;Zürich;261
1693998297-541;Badenerstrasse 803, 8048 Zürich, ZH;47.39271927;8.474808693;Zürich;261
1693998297-542;Badenerstrasse 803, 8048 Zürich, ZH;47.39271927;8.474808693;Zürich;261
1693998297-543;Badenerstrasse 803, 8048 Zürich, ZH;47.39271927;8.474808693;Zürich;261
1693998297-544;Badenerstrasse 803, 8048 Zürich, ZH;47.39271927;8.474808693;Zürich;261
1693998297-545;Badenerstrasse 803, 8048 Zürich, ZH;47.39271927;8.474808693;Zürich;261
1693998297-546;Dorfstrasse 20, 8332 Russikon, ZH;47.40920639;8.760706902;Russikon;178
1693998297-547;Johannisstrasse 3, 8404 Winterthur, ZH;47.50104904;8.74712944;Winterthur;230
1693998297-548;Seestrasse 16, 8810 Horgen, ZH;47.26856613;8.587145805;Horgen;295
1693998297-549;Grundstrasse 5, 8305 Dietlikon, ZH;47.4298439;8.619918823;Dietlikon;54
1693998297-550;Wydenstrasse 43, 8408 Winterthur, ZH;47.50845718;8.680622101;Winterthur;230
1693998297-551;Butzenstrasse 1, 8038 Zürich, ZH;47.3412323;8.530150414;Zürich;261
1693998297-552;Dornenstrasse 26, 8305 Dietlikon, ZH;47.42155457;8.618280411;Dietlikon;54
1693998301-553;Katharina Sulzer Platz 6, 8400 Winterthur, ZH;47.49671936;8.718175888;Winterthur;230
1693998301-554;Universitätstrasse 84, 8006 Zürich, ZH;47.38287735;8.548396111;Zürich;261
1693998301-555;Robert-Stephenson-Weg  47, 8004 Zürich, ZH;47.37981033;8.530495644;Zürich;261
1693998301-556;Aemtlerstrasse 76, 8003 Zürich, ZH;47.37344742;8.514222145;Zürich;261
1693998301-557;Flurstrasse 42, 8302 Kloten, ZH;47.45456696;8.590968132;Kloten;62
1693998301-558;Butzenstrasse 17, 8038 Zürich, ZH;47.34133911;8.528195381;Zürich;261
1693998301-559;Im Wiesli 4, 8708 Männedorf, ZH;47.25152969;8.699829102;Männedorf;155
1693998301-560;Badenerstr. 136, 8004 Zürich, ZH;47.37461472;8.522954941;Zürich;261
1693998301-562;Sonnenmatt 14, 8136 Gattikon, ZH;47.28471375;8.545886993;Thalwil;141
1693998301-563;Poststrasse 12, 8620 Wetzikon ZH, ZH;47.31987;8.79102993;Wetzikon (ZH);121
1693998301-565;Vieristr. 4, 8603 Schwerzenbach, ZH;47.38544464;8.652511597;Schwerzenbach;197
1693998301-567;Alte Landstrasse 38, 8800 Thalwil, ZH;47.28464127;8.572096825;Thalwil;141
1693998301-568;Bollstrasse 41, 8405 Winterthur, ZH;47.48130035;8.760834694;Winterthur;230
1693998301-569;Strittackerstrasse 16, 8406 Winterthur, ZH;47.48892975;8.711827278;Winterthur;230
1693998301-571;Zilstr. 1, 8117 Fällanden, ZH;47.37375259;8.635806084;Fällanden;193
1693998301-572;Junggrütstrasse 16, 8907 Wettswil, ZH;47.33286285;8.479876518;Wettswil am Albis;14
1693998301-574;Sunnehalde 5, 8634 Hombrechtikon, ZH;47.2474823;8.7721138;Hombrechtikon;153
1693998301-575;Treichlerstrasse 3, 8032 Zürich, ZH;47.37085342;8.557756424;Zürich;261
1693998301-576;Nelkenstrasse 7, 8006 Zürich, ZH;47.38194656;8.546003342;Zürich;261
1693998305-577;Schulhausstr. 17, 8002 Zürich, ZH;47.36077499;8.530658722;Zürich;261
1693998305-578;Schweizäckerstrasse 14, 8955 Oetwil an der Limmat, ZH;47.42378616;8.403396606;Oetwil an der Limmat;246
1693998305-579;Zürcherstrasse 75, 8406 Winterthur, ZH;47.49315643;8.709589005;Winterthur;230
1693998305-580;Quellenstrasse 34, 8005 Zürich, ZH;47.38537216;8.528522491;Zürich;261
1693998305-581;Heidenweg 10, 8907 Wettswil, ZH;47.34647751;8.466997147;Wettswil am Albis;14
1693998305-582;Grosswiesenstrasse 40, 8051 Zürich, ZH;47.40307236;8.584342003;Zürich;261
1693998305-583;Auenring 1, 8303 Bassersdorf, ZH;47.44049835;8.625197411;Bassersdorf;52
1693998305-584;Benglenstrasse 18, 8118 Pfaffhausen, ZH;47.36293411;8.621701241;Fällanden;193
1693998305-585;Steinstrasse 35, 8003 Zürich, ZH;47.36699677;8.520323753;Zürich;261
1693998305-588;Hofmannstr. 7, 8405 Winterthur, ZH;47.48404694;8.758574486;Winterthur;230
1693998305-589;Gartenhof 16, 8408 Winterthur, ZH;47.50822067;8.688071251;Winterthur;230
1693998305-590;Badenerstrasse 250, 8004 Zürich, ZH;47.37598801;8.516037941;Zürich;261
1693998305-591;Riedgrabenweg 28, 8050 Zürich, ZH;47.40773392;8.558954239;Zürich;261
1693998305-593;Am Eulachpark 45, 8404 Winterthur, ZH;47.50668335;8.76396656;Winterthur;230
1693998305-594;Dachslernstrasse 184, 8048 Zürich, ZH;47.39279556;8.470620155;Zürich;261
1693998305-595;Adlibogenstrasse 37, 8155 Niederhasli, ZH;47.48070526;8.497146606;Niederhasli;90
1693998305-596;Steinstrasse 27, 8003 Zürich, ZH;47.36752319;8.519974709;Zürich;261
1693998305-597;Steinstrasse 27, 8003 Zürich, ZH;47.36752319;8.519974709;Zürich;261
1693998305-598;Steinstrasse 27, 8003 Zürich, ZH;47.36752319;8.519974709;Zürich;261
1693998305-599;Merkurstrasse 18, 8032 Zürich, ZH;47.36674881;8.553874969;Zürich;261
1693998305-600;Obstgartenstrasse 30, 8105 Regensdorf, ZH;47.42833328;8.466853142;Regensdorf;96
1693998309-601;Auwiesenstrasse 7, 8406 Winterthur, ZH;47.48457336;8.709483147;Winterthur;230
1693998309-602;Hohlstr. 52, 8004 Zürich, ZH;47.37781143;8.525679588;Zürich;261
1693998309-603;Ekkehardstrasse 32, 8006 Zürich, ZH;47.38648224;8.544576645;Zürich;261
1693998309-604;Michelstrasse 15, 8049 Zürich, ZH;47.40548706;8.494178772;Zürich;261
1693998309-605;Michelstrasse 15, 8049 Zürich, ZH;47.40548706;8.494178772;Zürich;261
1693998309-606;Winkel 1, 8466 Trüllikon, ZH;47.63720322;8.691605568;Trüllikon;40
1693998309-607;8311 Brütten, ZH;47.47438812;8.675364494;Brütten;213
1693998309-608;Sagenbachstrasse 6, 8833 Samstagern, ZH;47.19528961;8.681655884;Richterswil;138
1693998309-610;Grossacherstrasse 20, 8634 Hombrechtikon, ZH;47.25127411;8.777853012;Hombrechtikon;153
1693998309-611;Faegswilerstrasse 1, 8630 Rüti ZH, ZH;47.26417923;8.866929054;Rüti (ZH);118
1693998309-612;8057 Zürich, ZH;47.39358521;8.539556503;Zürich;261
1693998309-613;Holzlegistrasse 49a, 8408 Winterthur, ZH;47.51272202;8.688642502;Winterthur;230
1693998309-614;Rümlangstrasse 70, 8052 Zürich, ZH;47.42987823;8.541399956;Zürich;261
1693998309-615;Stampfenbachplatz 4, 8006 Zürich, ZH;47.38040161;8.542487144;Zürich;261
1693998309-616;Tannenbergstrasse 46, 8625 Gossau ZH, ZH;47.30555725;8.768151283;Gossau (ZH);115
1693998309-617;Tannenbergstrasse 46, 8625 Gossau ZH, ZH;47.30555725;8.768151283;Gossau (ZH);115
1693998309-618;Sternenstrasse 29, 8002 Zürich, ZH;47.35980988;8.532320976;Zürich;261
1693998309-619;Überlandstrasse 18, 8953 Dietikon, ZH;47.4088707;8.405828476;Dietikon;243
1693998309-620;Buchholzstrasse, 8053 Zürich, ZH;47.35992813;8.584486961;Zürich;261
1693998309-621;Baurstrasse 29, 8008 Zürich, ZH;47.3559227;8.554497719;Zürich;261
1693998309-622;Bachtelstrasse 38, 8810 Horgen, ZH;47.24637985;8.610760689;Horgen;295
1693998309-623;Freiestrasse 178, 8032 Zürich, ZH;47.3624115;8.563772202;Zürich;261
1693998309-624;Kleinertstrasse 2, 8037 Zürich, ZH;47.39432907;8.523425102;Zürich;261
1693998313-625;8048 Zürich, ZH;47.38897705;8.486362457;Zürich;261
1693998313-626;Seidenstr. 26, 8600 Dübendorf, ZH;47.40491867;8.607484818;Dübendorf;191
1693998313-627;Seuzacherstr. 13b, 8400 Winterthur, ZH;47.51916885;8.719536781;Winterthur;230
1693998313-628;Riedmühlestr. 7d, 8305 Dietlikon, ZH;47.42698669;8.622231483;Dietlikon;54
1693998313-630;Riedmühlestr. 7b, 8305 Dietlikon, ZH;47.426754;8.621732712;Dietlikon;54
1693998313-631;Tössstr. 49, 8427 Rorbas, ZH;47.53366089;8.578751564;Rorbas;68
1693998313-632;Sunnebergstr . 6, 8248 Uhwiesen, ZH;47.67268753;8.633426666;Laufen-Uhwiesen;34
1693998313-633;Hint. Grundstr. 24, 8320 Fehraltorf, ZH;47.38648224;8.758552551;Fehraltorf;172
1693998313-634;Hegistr. 39f, 8404 Winterthur, ZH;47.50342178;8.755505562;Winterthur;230
1693998313-635;Streitholzstrasse 14, 8057 Zürich, ZH;47.39865494;8.553853035;Zürich;261
1693998313-636;Streitholzstrasse 14, 8057 Zürich, ZH;47.39865494;8.553853035;Zürich;261
1693998313-637;Vulkanstrasse 110a, 8048 Zürich, ZH;47.39344025;8.485149384;Zürich;261
1693998313-638;Steinstrasse 27, 8003 Zürich, ZH;47.36752319;8.519974709;Zürich;261
1693998313-639;Steinstrasse 27, 8003 Zürich, ZH;47.36752319;8.519974709;Zürich;261
1693998313-640;Glattstegweg 5, 8051 Zürich, ZH;47.40656662;8.573356628;Zürich;261
1693998313-641;Haldenstrasse 3, 8472 Seuzach, ZH;47.53866959;8.728983879;Seuzach;227
1693998313-642;Brunnenwiesenstr. 42, 8610 Uster, ZH;47.35499954;8.716510773;Uster;198
1693998313-643;Heusserstrasse 17, 8634 Hombrechtikon, ZH;47.25415039;8.775025368;Hombrechtikon;153
1693998313-644;Klosbachstrasse 44, 8032 Zürich, ZH;47.36623764;8.557329178;Zürich;261
1693998313-646;Tannenweg 12, 8908 Hedingen, ZH;47.29951859;8.454818726;Hedingen;5
1693998313-647;Bahnhofstrasse 55, 8600 Dübendorf, ZH;47.39982605;8.62195015;Dübendorf;191
1693998313-648;Wässerwiesenstrasse 65, 8408 Winterthur, ZH;47.51136398;8.686423302;Winterthur;230
1693998317-649;Grosswiesenstrasse 147, 8051 Zürich, ZH;47.4036026;8.588092804;Zürich;261
1693998317-650;Schulstrasse 5, 8157 Dielsdorf, ZH;47.48201752;8.454813004;Dielsdorf;86
1693998317-651;Urdorferstrasse 40b, 8952 Schlieren, ZH;47.39493179;8.441030502;Schlieren;247
1693998317-652;Heusserstrasse 3, 8634 Hombrechtikon, ZH;47.25440598;8.773088455;Hombrechtikon;153
1693998317-653;8001 Zürich, ZH;47.37496567;8.543989182;Zürich;261
1693998317-654;Zürcherstrasse 27, 8102 Oberengstringen, ZH;47.40513992;8.475050926;Oberengstringen;245
1693998317-655;Kaiserstuhlstrasse 47, 8172 Niederglatt ZH, ZH;47.49330902;8.497548103;Niederglatt;89
1693998317-656;Wannerstr. 43, 8045 Zürich, ZH;47.35718155;8.517454147;Zürich;261
1693998317-657;Riedstr. 28, 8604 Volketswil, ZH;47.38731384;8.663931847;Volketswil;199
1693998317-658;8004 Zürich, ZH;47.38041687;8.525351524;Zürich;261
1693998317-659;Carmenstrasse 2, 8032 Zürich, ZH;47.37083435;8.561092377;Zürich;261
1693998317-660;Wehntalerstrasse 295, 8106 Adlikon b. Regensdorf, ZH;47.4489975;8.466146469;Regensdorf;96
1693998317-661;Vulkanstrasse 110b, 8048 Zürich, ZH;47.39360428;8.484579086;Zürich;261
1693998317-662;Rebrainstrasse 17, 8106 Adlikon b. Regensdorf, ZH;47.44966507;8.466696739;Regensdorf;96
1693998317-663;Rütistr. 42, 8134 Adliswil, ZH;47.3057518;8.529612541;Adliswil;131
1693998317-664;Tischenlooweg 6, 8800 Thalwil, ZH;47.28198242;8.57791996;Thalwil;141
1693998317-665;Schulgutstrasse 1, 8953 Dietikon, ZH;47.41072464;8.404157639;Dietikon;243
1693998317-666;Ankenbüel 4, 8126 Zumikon, ZH;47.32666779;8.632299423;Zumikon;160
1693998317-667;Zürichstrasse 170, 8910 Affoltern am Albis, ZH;47.28475571;8.453343391;Affoltern am Albis;2
1693998317-668;Nebelbachstrasse 5, 8008 Zürich, ZH;47.35296249;8.55812645;Zürich;261
1693998317-669;Zelgli 12, 8413 Neftenbach, ZH;47.52425766;8.655200005;Neftenbach;223
1693998317-671;Hängertenstr. 9, 8104 Weiningen ZH, ZH;47.41659164;8.444244385;Weiningen (ZH);251
1693998317-672;Renggerstrasse 57, 8038 Zürich, ZH;47.34476089;8.532867432;Zürich;261
1693998321-673;Tösstalstrasse 16, 8400 Winterthur, ZH;47.49816132;8.732038498;Winterthur;230
1693998321-674;Gräbligasse 3, 8001 Zürich, ZH;47.37565613;8.544196129;Zürich;261
1693998321-675;Untere Zäune 7, 8001 Zürich, ZH;47.37126923;8.54618454;Zürich;261
1693998321-676;Dorfstrasse 15, 8154 Oberglatt ZH, ZH;47.47769165;8.523736954;Oberglatt;92
1693998321-678;Güterstrasse 3, 8952 Schlieren, ZH;47.39883423;8.447376251;Schlieren;247
1693998321-679;Gumpenwiesenstr. 33, 8157 Dielsdorf, ZH;47.47614288;8.456404686;Dielsdorf;86
1693998321-680;Seestrasse 36, 8330 Pfäffikon ZH, ZH;47.36629486;8.781371117;Pfäffikon;177
1693998321-682;Güetliweg 5, 8050 Zürich, ZH;47.41283798;8.530469894;Zürich;261
1693998321-683;Neptunstrasse 42, 8032 Zürich, ZH;47.36663818;8.556288719;Zürich;261
1693998321-684;Marktgasse 36, 8400 Winterthur, ZH;47.49973679;8.729105949;Winterthur;230
1693998321-685;Vorbruggenstrasse 4B, 8422 Pfungen, ZH;47.51792145;8.638983727;Pfungen;224
1693998321-686;Obere Wangenstr. 10, 8306 Brüttisellen, ZH;47.42505264;8.634908676;Wangen-Brüttisellen;200
1693998321-687;Gussstrasse 34, 8180 Bülach, ZH;47.5257225;8.537474632;Bülach;53
1693998321-688;Obere Wangenstr. 8, 8306 Brüttisellen, ZH;47.42533493;8.634902954;Wangen-Brüttisellen;200
1693998321-690;Rebhaldenstrasse 71, 8625 Gossau ZH, ZH;47.30525589;8.767916679;Gossau (ZH);115
1693998321-691;Steinhaldenstrasse 46, 8002 Zürich, ZH;47.35947037;8.527507782;Zürich;261
1693998321-692;Roggenweg 8, 8405 Winterthur, ZH;47.48168182;8.763132095;Winterthur;230
1693998321-693;Nordstrasse 166, 8037 Zürich, ZH;47.39172745;8.532544136;Zürich;261
1693998321-694;Holzmoosrütistrasse 46a, 8820 Wädenswil, ZH;47.23571777;8.649987221;Wädenswil;293
1693998321-695;8330 Pfäffikon ZH, ZH;47.36602402;8.783287048;Pfäffikon;177
1693998321-696;Grosswiesenstrasse 145, 8051 Zürich, ZH;47.4033699;8.588055611;Zürich;261
1693998326-697;Gutstrasse 11, 8400 Winterthur, ZH;47.48962402;8.733376503;Winterthur;230
1693998326-698;Gutstrasse 13, 8400 Winterthur, ZH;47.48973083;8.733253479;Winterthur;230
1693998326-699;Vulkanstrasse 110a, 8048 Zürich, ZH;47.39344025;8.485149384;Zürich;261
1693998326-701;Magazingasse 2, 8400 Winterthur, ZH;47.50620651;8.718906403;Winterthur;230
1693998326-702;Hohenbühlstrasse 7, 8032 Zürich, ZH;47.3663063;8.551867485;Zürich;261
1693998326-703;Rietgrabenstrasse 46, 8152 Opfikon, ZH;47.42569351;8.576032639;Opfikon;66
1693998326-704;Allmendstrasse 46, 8154 Oberglatt ZH, ZH;47.47076797;8.512127876;Oberglatt;92
1693998326-706;Viktoriastrasse 29, 8057 Zürich, ZH;47.40406799;8.550452232;Zürich;261
1693998326-707;Viktoriastrasse 29, 8057 Zürich, ZH;47.40406799;8.550452232;Zürich;261
1693998326-708;Leubergstrasse 13, 8615 Wermatswil, ZH;47.36230469;8.742115021;Uster;198
1693998326-709;Vulkanstrasse 110c, 8048 Zürich, ZH;47.39374924;8.484014511;Zürich;261
1693998326-710;Forenackerstrasse 6, 8246 Langwiesen, ZH;47.68531418;8.654377937;Feuerthalen;27
1693998326-711;Im Rietpark 15, 8180 Bülach, ZH;47.51199722;8.544596672;Bülach;53
1693998326-713;Solarstrasse 7, 8404 Winterthur, ZH;47.5019455;8.766477585;Winterthur;230
1693998326-714;Winterthurerstrasse 300, 8057 Zürich, ZH;47.40284729;8.555103302;Zürich;261
1693998326-716;Saumstrasse 39, 8003 Zürich, ZH;47.37188721;8.512154579;Zürich;261
1693998326-717;Poststrasse 6, 8462 Rheinau, ZH;47.64480209;8.605175972;Rheinau;38
1693998326-718;Nordstrasse 166, 8037 Zürich, ZH;47.39172745;8.532544136;Zürich;261
1693998326-719;Schlössliweg 9, 8044 Zürich, ZH;47.38334656;8.558879852;Zürich;261
1693998326-720;Grosswiesenstrasse 8, 8051 Zürich, ZH;47.40335846;8.582974434;Zürich;261
1693998330-721;Ferdinand Hodler-Str. 14, 8049 Zürich, ZH;47.40437698;8.500596046;Zürich;261
1693998330-722;Hofwiesenstrasse 234, 8057 Zürich, ZH;47.40403366;8.537086487;Zürich;261
1693998330-723;Thurweg 3, 8450 Andelfingen, ZH;47.59724045;8.678853035;Andelfingen;30
1693998330-725;Gossauerstrasse 4, 8618 Oetwil am See, ZH;47.27293396;8.721443176;Oetwil am See;157
1693998330-726;Aeussere Hintergasse 4, 8353 Elgg, ZH;47.48873138;8.866697311;Elgg;294
1693998330-727;Aeussere Hintergasse 4, 8353 Elgg, ZH;47.48873138;8.866697311;Elgg;294
1693998330-728;Am Eulachpark 21, 8404 Winterthur, ZH;47.50647736;8.763701439;Winterthur;230
1693998330-729;Nürenbergstrasse 23, 8037 Zürich, ZH;47.39301682;8.53344059;Zürich;261
1693998330-730;Grindelstrasse 45, 8604 Volketswil, ZH;47.38715744;8.664961815;Volketswil;199
1693998330-731;Am Bach 64, 8400 Winterthur, ZH;47.48686218;8.751680374;Winterthur;230
1693998330-733;Bergstrasse 19, 8618 Oetwil am See, ZH;47.26916504;8.717760086;Oetwil am See;157
1693998330-734;Freiestrasse 15, 8610 Uster, ZH;47.34874344;8.721585274;Uster;198
1693998330-735;Tannenrainstr. 9, 8620 Wetzikon ZH, ZH;47.31309509;8.792524338;Wetzikon (ZH);121
1693998330-736;Glärnischstrasse 1, 8134 Adliswil, ZH;47.32118988;8.518392563;Adliswil;131
1693998330-737;Stöcklerstrasse 2, 8610 Uster, ZH;47.34369278;8.734594345;Uster;198
1693998330-738;Else-Züblin-Strasse 108, 8404 Winterthur, ZH;47.50382996;8.764517784;Winterthur;230
1693998330-739;Kirchgasse 3, 8353 Elgg, ZH;47.49012756;8.868232727;Elgg;294
1693998330-740;Stadelhoferstrasse 12, 8001 Zürich, ZH;47.36679459;8.547520638;Zürich;261
1693998330-741;Sunnebüelstr. 33, 8604 Volketswil, ZH;47.39295578;8.682061195;Volketswil;199
1693998330-744;Urdorferstrasse 40b, 8952 Schlieren, ZH;47.39493179;8.441030502;Schlieren;247
1693998335-745;Am Balsberg 28, 8302 Kloten, ZH;47.44229889;8.576706886;Kloten;62
1693998335-746;Stettbachstrasse 43, 8051 Zürich, ZH;47.40340424;8.572907448;Zürich;261
1693998335-747;Eugen-Huber-Str. 115, 8048 Zürich, ZH;47.38724899;8.475160599;Zürich;261
1693998335-748;Genferstr. 24, 8002 Zürich, ZH;47.36535263;8.534263611;Zürich;261
1693998335-749;Poststrasse 61, 8462 Rheinau, ZH;47.64022827;8.600247383;Rheinau;38
1693998335-750;Rütistrasse 14, 8118 Pfaffhausen, ZH;47.36319351;8.617014885;Fällanden;193
1693998335-751;Grampenweg 35, 8180 Bülach, ZH;47.51690674;8.53417778;Bülach;53
1693998335-752;Alte Zwillikerstrasse 1, 8908 Hedingen, ZH;47.29668045;8.447968483;Hedingen;5
1693998335-753;Dättnauerstr. 141, 8406 Winterthur, ZH;47.48393631;8.691606522;Winterthur;230
1693998335-754;Schaffhauserstrasse 363, 8050 Zürich, ZH;47.41106796;8.546546936;Zürich;261
1693998335-755;Sempacherstrasse 20, 8032 Zürich, ZH;47.36277008;8.566496849;Zürich;261
1693998335-759;Marktgasse 54, 8400 Winterthur, ZH;47.49965286;8.728380203;Winterthur;230
1693998335-760;Reutlingerstr. 15, 8404 Winterthur, ZH;47.52206039;8.756828308;Winterthur;230
1693998335-761;Dättnauerstr. 143, 8406 Winterthur, ZH;47.48428726;8.691147804;Winterthur;230
1693998335-762;Wermatswilerstrasse 92, 8610 Uster, ZH;47.35684967;8.730287552;Uster;198
1693998335-763;Urdorferstrasse 25, 8953 Dietikon, ZH;47.3973999;8.416020393;Dietikon;243
1693998335-764;Euelstrasse  56, 8408 Winterthur, ZH;47.51079941;8.680351257;Winterthur;230
1693998335-765;Im Grüntal 10, 8405 Winterthur, ZH;47.48119736;8.77189064;Winterthur;230
1693998335-766;Am Balsberg 22, 8302 Kloten, ZH;47.44192123;8.576112747;Kloten;62
1693998335-767;Badenerstrasse 90, 8952 Schlieren, ZH;47.39736176;8.433037758;Schlieren;247
1693998340-769;Oberlandstrasse 106, 8610 Uster, ZH;47.35125732;8.720507622;Uster;198
1693998340-770;Poststrasse 8, 8953 Dietikon, ZH;47.40374374;8.405690193;Dietikon;243
1693998340-771;Carmenstrasse 2, 8032 Zürich, ZH;47.37083435;8.561092377;Zürich;261
1693998340-772;Hintere Etzelstrasse 7, 8810 Horgen, ZH;47.25731277;8.594183922;Horgen;295
1693998340-773;Seestrasse 67, 8708 Männedorf, ZH;47.25766754;8.682857513;Männedorf;155
1693998340-774;Bahnstr. 90, 8193 Eglisau, ZH;47.57431793;8.515888214;Eglisau;55
1693998340-775;Tösstalstr. 218, 8405 Winterthur, ZH;47.48607254;8.756264687;Winterthur;230
1693998340-776;Lochäckerstrasse 12, 8302 Kloten, ZH;47.44470596;8.590353012;Kloten;62
1693998340-777;Feldstrasse 46, 8004 Zürich, ZH;47.37628555;8.521571159;Zürich;261
1693998340-778;Seestrasse 324, 8038 Zürich, ZH;47.34787369;8.532529831;Zürich;261
1693998340-779;Lettenstrasse 27, 8408 Winterthur, ZH;47.50576782;8.690704346;Winterthur;230
1693998340-780;Grabenwies 2, 8057 Zürich, ZH;47.40153503;8.536803246;Zürich;261
1693998340-781;Kirchweg 112, 8246 Langwiesen, ZH;47.68610001;8.654781342;Feuerthalen;27
1693998340-782;Im Langacker 15, 8304 Wallisellen, ZH;47.4095726;8.605873108;Wallisellen;69
1693998340-783;Balsbergweg 11, 8302 Kloten, ZH;47.44378662;8.577267647;Kloten;62
1693998340-784;Weststrasse 80, 8620 Wetzikon ZH, ZH;47.3312149;8.797296524;Wetzikon (ZH);121
1693998340-786;Edenstrasse 9, 8045 Zürich, ZH;47.35978317;8.521680832;Zürich;261
1693998340-787;Rudolfstr. 25, 8400 Winterthur, ZH;47.50188446;8.723417282;Winterthur;230
1693998340-788;Stationsstrasse 8, 8306 Brüttisellen, ZH;47.42031479;8.629534721;Wangen-Brüttisellen;200
1693998340-790;In der Höh 24, 8604 Volketswil, ZH;47.38404083;8.669712067;Volketswil;199
1693998340-791;Wildbachstrasse 9, 8424 Embrach, ZH;47.5118103;8.590280533;Embrach;56
1693998340-792;Tannenrainstr. 11, 8620 Wetzikon ZH, ZH;47.31320953;8.792909622;Wetzikon (ZH);121
1693998344-793;Aspbachstrasse 4, 8426 Lufingen, ZH;47.48720169;8.592188835;Lufingen;63
1693998344-795;Schwimmbadstr. 9, 8302 Kloten, ZH;47.44452667;8.581310272;Kloten;62
1693998344-796;Thurgauerstrasse 138, 8152 Opfikon, ZH;47.42422104;8.56125927;Opfikon;66
1693998344-798;Fachstrasse 17, 8942 Oberrieden, ZH;47.27963257;8.578361511;Oberrieden;137
1693998344-799;Hamelirainstrasse 17, 8302 Kloten, ZH;47.44870758;8.587029457;Kloten;62
1693998344-801;Südweg 4, 8180 Bülach, ZH;47.51263809;8.541931152;Bülach;53
1693998344-802;Kellersackerstr. 13, 8424 Embrach, ZH;47.5146904;8.591684341;Embrach;56
1693998344-803;Birmensdorferstrasse 470, 8055 Zürich, ZH;47.36862183;8.498102188;Zürich;261
1693998344-804;Zentralstr. 2, 8953 Dietikon, ZH;47.40506744;8.40071106;Dietikon;243
1693998344-805;In der Sagi 1, 8172 Niederglatt ZH, ZH;47.49239731;8.504705429;Niederglatt;89
1693998344-806;Im Lot 13, 8610 Uster, ZH;47.34845734;8.711673737;Uster;198
1693998344-808;Heiniweg 10, 8404 Winterthur, ZH;47.51877213;8.764560699;Winterthur;230
1693998344-809;Brandstrasse 21, 8952 Schlieren, ZH;47.40125656;8.445633888;Schlieren;247
1693998344-810;Wehntalerstrasse 424, 8046 Zürich, ZH;47.41547775;8.515069962;Zürich;261
1693998344-811;Walther-Hauser-Strasse 15, 8820 Wädenswil, ZH;47.21727753;8.676506996;Wädenswil;293
1693998344-812;Regensbergstrasse 11, 8157 Dielsdorf, ZH;47.48141861;8.451350212;Dielsdorf;86
1693998344-813;Unterwerkstrasse 30, 8192 Zweidlen, ZH;47.56917191;8.473433495;Glattfelden;58
1693998344-814;Tösstalstr. 124, 8623 Wetzikon ZH, ZH;47.32863235;8.822933197;Wetzikon (ZH);121
1693998344-815;Stöcklerstr. 8, 8610 Uster, ZH;47.34269333;8.735127449;Uster;198
1693998344-816;Sonnhaldenstrasse 14, 8142 Uitikon Waldegg, ZH;47.35915375;8.469325066;Uitikon;248
1693998349-817;Usterstrasse 63C, 8620 Wetzikon ZH, ZH;47.32746124;8.793194771;Wetzikon (ZH);121
1693998349-818;Unterwerkstrasse 30, 8192 Zweidlen, ZH;47.56917191;8.473433495;Glattfelden;58
1693998349-819;Unterwerkstrasse 26, 8192 Zweidlen, ZH;47.56964493;8.473164558;Glattfelden;58
1693998349-820;Kirchweg 38, 8102 Oberengstringen, ZH;47.40537262;8.471950531;Oberengstringen;245
1693998349-821;Zürcherstrasse 135, 8406 Winterthur, ZH;47.49066162;8.70619297;Winterthur;230
1693998349-822;Speerstrasse 47, 8038 Zürich, ZH;47.34088516;8.528155327;Zürich;261
1693998349-823;Schiltwiesenweg 24, 8404 Winterthur, ZH;47.50926971;8.759596825;Winterthur;230
1693998349-824;Birmensdorferstrasse 541, 8055 Zürich, ZH;47.36672974;8.492531776;Zürich;261
1693998349-825;Zürcherstrasse 58, 8406 Winterthur, ZH;47.49482346;8.711419106;Winterthur;230
1693998349-826;Maienstrasse 8, 8406 Winterthur, ZH;47.49238968;8.715725899;Winterthur;230
1693998349-827;Geerenstrasse 2, 8320 Fehraltorf, ZH;47.38558197;8.75210762;Fehraltorf;172
1693998349-828;Manessestrasse 8, 8003 Zürich, ZH;47.36951447;8.526852608;Zürich;261
1693998349-829;Neuwiesenstr. 14, 8400 Winterthur, ZH;47.50178146;8.720872879;Winterthur;230
1693998349-831;Aronenweg 9, 8618 Oetwil am See, ZH;47.27603149;8.718671799;Oetwil am See;157
1693998349-832;Ottostrasse 17, 8005 Zürich, ZH;47.38629532;8.525397301;Zürich;261
1693998349-833;Grossackerstrasse 75, 8041 Zürich, ZH;47.32391739;8.509812355;Zürich;261
1693998349-834;Steiggasse 3, 8400 Winterthur, ZH;47.49802399;8.727912903;Winterthur;230
1693998349-835;Hofwiesenstrasse 2, 8330 Pfäffikon ZH, ZH;47.37334442;8.781890869;Pfäffikon;177
1693998349-837;Lindenstrasse 21, 8008 Zürich, ZH;47.35761642;8.550992966;Zürich;261
1693998349-838;Johannes-Hirt-Strasse 3, 8804 Au ZH, ZH;47.24170303;8.649914742;Wädenswil;293
1693998349-839;Überlandstr. 26, 8953 Dietikon, ZH;47.40888214;8.404066086;Dietikon;243
1693998349-840;Riedenhaldenstrasse 54, 8046 Zürich, ZH;47.41622543;8.515331268;Zürich;261
1693998354-841;Isenbachweg 10, 8906 Bonstetten, ZH;47.31518555;8.470910072;Bonstetten;3
1693998354-842;Vulkanstrasse 110c, 8048 Zürich, ZH;47.39374924;8.484014511;Zürich;261
1693998354-843;Wülflingerstrasse 349, 8408 Winterthur, ZH;47.51451874;8.683442116;Winterthur;230
1693998354-844;Geissbergweg 21, 8006 Zürich, ZH;47.38663864;8.550338745;Zürich;261
1693998354-845;Seestrasse 78, 8610 Uster, ZH;47.34431839;8.700759888;Uster;198
1693998354-846;Grosswiesenstrasse 30, 8051 Zürich, ZH;47.40300369;8.583836555;Zürich;261
1693998354-847;Sihlhallenstrasse 19, 8004 Zürich, ZH;47.37994003;8.526269913;Zürich;261
1693998354-849;Goldschlägiplatz 2, 8952 Schlieren, ZH;47.40031052;8.441031456;Schlieren;247
1693998354-850;Brandstrasse 43, 8952 Schlieren, ZH;47.40077591;8.441206932;Schlieren;247
1693998354-851;Preyenstr. 37, 8623 Wetzikon ZH, ZH;47.32847595;8.821612358;Wetzikon (ZH);121
1693998354-852;Preyenstr. 27, 8623 Wetzikon ZH, ZH;47.32875061;8.821177483;Wetzikon (ZH);121
1693998354-853;Goethestr. 28, 8712 Stäfa, ZH;47.24065399;8.724438667;Stäfa;158
1693998354-854;Riedenhaldenstrasse 80, 8046 Zürich, ZH;47.41686249;8.514750481;Zürich;261
1693998354-855;Genferstr. 24, 8002 Zürich, ZH;47.36535263;8.534263611;Zürich;261
1693998354-856;Heiniweg 12, 8404 Winterthur, ZH;47.51890564;8.764558792;Winterthur;230
1693998354-857;Glärnischstr. 56, 8618 Oetwil am See, ZH;47.2779274;8.720858574;Oetwil am See;157
1693998354-858;Sulzerallee 63, 8404 Winterthur, ZH;47.50243759;8.763534546;Winterthur;230
1693998354-860;Buchholzstrasse 100, 8053 Zürich, ZH;47.3602562;8.588074684;Zürich;261
1693998354-861;Lochäckerstrasse 14, 8302 Kloten, ZH;47.44467926;8.590867043;Kloten;62
1693998354-862;Turbinenstrasse 35, 8005 Zürich, ZH;47.38687897;8.514894485;Zürich;261
1693998354-863;Dorfgasse 1, 8810 Horgen, ZH;47.26023483;8.598649025;Horgen;295
1693998354-864;Burstwiesenstrasse 37, 8606 Greifensee, ZH;47.37215042;8.67997551;Greifensee;194
1693998360-865;Südstrasse 3, 8008 Zürich, ZH;47.35526276;8.561944962;Zürich;261
1693998360-866;Mönchbergstr. 5, 8623 Wetzikon ZH, ZH;47.32914734;8.82100296;Wetzikon (ZH);121
1693998360-867;Stöcklerstr. 6, 8610 Uster, ZH;47.34308243;8.734877586;Uster;198
1693998360-868;Rütistr. 74, 8134 Adliswil, ZH;47.30628204;8.531023979;Adliswil;131
1693998360-869;Unterdorfstr. 10, 8340 Hinwil, ZH;47.30290604;8.837249756;Hinwil;117
1693998360-870;Eichweidstrasse 20, 8820 Wädenswil, ZH;47.21808243;8.67582798;Wädenswil;293
1693998360-871;Herbstweg 5, 8050 Zürich, ZH;47.40534592;8.556075096;Zürich;261
1693998360-872;Hegistr. 41e, 8404 Winterthur, ZH;47.50392914;8.756109238;Winterthur;230
1693998360-873;Steinmürlistrasse 48, 8953 Dietikon, ZH;47.40436554;8.392781258;Dietikon;243
1693998360-874;Nordeckstrasse 10, 8636 Wald ZH, ZH;47.26802826;8.915932655;Wald (ZH);120
1693998360-875;Weststr. 134, 8408 Winterthur, ZH;47.51034164;8.704679489;Winterthur;230
1693998360-876;Sulzerallee 65, 8404 Winterthur, ZH;47.50247574;8.763773918;Winterthur;230
1693998360-877;Grindelstrasse 57, 8604 Volketswil, ZH;47.38798904;8.665402412;Volketswil;199
1693998360-878;Tösstalstr. 116, 8623 Wetzikon ZH, ZH;47.32901001;8.822156906;Wetzikon (ZH);121
1693998360-879;Ackerstr. 29, 8604 Volketswil, ZH;47.38687515;8.667529106;Volketswil;199
1693998360-880;Seidenstr. 20, 8600 Dübendorf, ZH;47.40487289;8.606994629;Dübendorf;191
1693998360-881;Seidenstr. 16, 8600 Dübendorf, ZH;47.4047966;8.606780052;Dübendorf;191
1693998360-883;Schaffhauserstrasse 6, 8400 Winterthur, ZH;47.50352859;8.725122452;Winterthur;230
1693998360-884;Oberlandstr. 77, 8610 Uster, ZH;47.35471344;8.715872765;Uster;198
1693998360-885;Bernerstrasse Süd 169, 8048 Zürich, ZH;47.39453125;8.486136436;Zürich;261
1693998360-886;Bernerstrasse Süd 169, 8048 Zürich, ZH;47.39453125;8.486136436;Zürich;261
1693998360-887;Bahnhofstr. 212, 8620 Wetzikon ZH, ZH;47.32878113;8.804042816;Wetzikon (ZH);121
1693998360-888;Zurlindenstrasse 31, 8003 Zürich, ZH;47.36843872;8.521792412;Zürich;261
1693998364-889;Sternenstrasse 16, 8002 Zürich, ZH;47.36030197;8.533720016;Zürich;261
1693998364-890;Heerenschürlistrasse 1, 8051 Zürich, ZH;47.40034866;8.590806007;Zürich;261
1693998364-891;Hegistr. 41e, 8404 Winterthur, ZH;47.50392914;8.756109238;Winterthur;230
1693998364-892;Hofwiesenstrasse 232, 8057 Zürich, ZH;47.40382385;8.536986351;Zürich;261
1693998364-893;Schellerstrasse 23, 8620 Wetzikon ZH, ZH;47.32172012;8.785868645;Wetzikon (ZH);121
1693998364-894;Feldstrasse 46, 8004 Zürich, ZH;47.37628555;8.521571159;Zürich;261
1693998364-895;Einsiedlerstrasse 29, 8810 Horgen, ZH;47.26734543;8.585040092;Horgen;295
1693998364-896;Langenmattstrasse 14, 8617 Mönchaltorf, ZH;47.31597137;8.71972847;Mönchaltorf;196
1693998364-897;Eggbühlstrasse 26, 8050 Zürich, ZH;47.41639709;8.542954445;Zürich;261
1693998364-898;Pfruendhofstrasse 54, 8910 Affoltern am Albis, ZH;47.27677536;8.455918312;Affoltern am Albis;2
1693998364-899;Weizackerstrasse 3, 8405 Winterthur, ZH;47.47996521;8.7663908;Winterthur;230
1693998364-900;Brandstr. 11b, 8340 Hinwil, ZH;47.29561234;8.840464592;Hinwil;117
1693998364-901;Goldschlägiplatz 1, 8952 Schlieren, ZH;47.4003067;8.440872192;Schlieren;247
1693998364-902;Vulkanstrasse 110a, 8048 Zürich, ZH;47.39344025;8.485149384;Zürich;261
1693998364-903;Breitestrasse 9, 8427 Freienstein, ZH;47.53303146;8.58389473;Freienstein-Teufen;57
1693998364-904;Am Pfisterhölzli 17, 8606 Greifensee, ZH;47.36456299;8.690103531;Greifensee;194
1693998364-905;Alte Poststr. 7, 8172 Niederglatt ZH, ZH;47.49063492;8.502139091;Niederglatt;89
1693998364-906;Wilstrasse 19, 8610 Uster, ZH;47.34847641;8.710393906;Uster;198
1693998364-907;Aronenweg 11, 8618 Oetwil am See, ZH;47.27605438;8.718195915;Oetwil am See;157
1693998364-908;Länggenstrasse 18, 8184 Bachenbülach, ZH;47.50402069;8.543021202;Bachenbülach;51
1693998364-909;Else-Züblin-Strasse 77, 8404 Winterthur, ZH;47.50312042;8.763753891;Winterthur;230
1693998364-910;Hummelackerstr. 29, 8106 Adlikon b. Regensdorf, ZH;47.452034;8.464168549;Regensdorf;96
1693998364-911;Bauherrenstrasse 11, 8049 Zürich, ZH;47.39942169;8.50096035;Zürich;261
1693998364-912;Feldweg 8, 8623 Wetzikon ZH, ZH;47.33178329;8.807315826;Wetzikon (ZH);121
1693998369-913;Zollikerstrasse 164, 8008 Zürich, ZH;47.3541069;8.561359406;Zürich;261
1693998369-914;Alte Dorfstrasse 17, 8487 Zell ZH, ZH;47.44674301;8.8237257;Zell (ZH);231
1693998369-915;Churfirstenstrasse 16, 8304 Wallisellen, ZH;47.41055679;8.604314804;Wallisellen;69
1693998369-916;Feldistrasse 6, 8479 Altikon, ZH;47.5733757;8.782827377;Altikon;211
1693998369-918;Dorfstrasse 89, 8805 Richterswil, ZH;47.21140671;8.70297718;Richterswil;138
1693998369-919;Oberalbis 10, 8915 Hausen am Albis, ZH;47.25214005;8.530310631;Hausen am Albis;4
1693998369-920;Badenerstrasse 17a, 8104 Weiningen ZH, ZH;47.41889572;8.432320595;Weiningen (ZH);251
1693998369-921;Berninastrasse 57, 8057 Zürich, ZH;47.40406036;8.545023918;Zürich;261
1693998369-922;8404 Reutlingen (Winterthur), ZH;47.52051544;8.748947144;Winterthur;230
1693998369-923;8907 Wettswil, ZH;47.33167267;8.475844383;Wettswil am Albis;14
1693998369-924;Anemonenstrasse 30, 8953 Dietikon, ZH;47.39498901;8.40268898;Dietikon;243
1693998369-925;Kreuzstrasse 11, 8180 Bülach, ZH;47.51956558;8.541257858;Bülach;53
1693998369-926;Dorfstrasse 2, 8309 Nürensdorf, ZH;47.45838928;8.63862896;Nürensdorf;64
1693998369-927;Untere Zäune 20, 8001 Zürich, ZH;47.37178421;8.545750618;Zürich;261
1693998369-931;Brandgrubenstrasse 23, 8610 Uster, ZH;47.35429382;8.710342407;Uster;198
1693998369-932;Hauptstrasse 1d, 8544 Attikon, ZH;47.53608704;8.795804024;Wiesendangen;298
1693998369-933;Lochäckerstrasse 12, 8302 Kloten, ZH;47.44470596;8.590353012;Kloten;62
1693998369-934;Schulgutstrasse 4, 8953 Dietikon, ZH;47.41051865;8.403814316;Dietikon;243
1693998369-935;Baslerstrasse 77, 8048 Zürich, ZH;47.38611221;8.496638298;Zürich;261
1693998369-936;Dienerstrasse 8, 8004 Zürich, ZH;47.37765503;8.528881073;Zürich;261
1693998373-937;Tannenbergstrasse 46, 8625 Gossau ZH, ZH;47.30555725;8.768151283;Gossau (ZH);115
1693998373-938;Breitigasse 13, 8610 Uster, ZH;47.34459305;8.735006332;Uster;198
1693998373-939;Tödistrasse 5, 8620 Wetzikon ZH, ZH;47.32584381;8.797143936;Wetzikon (ZH);121
1693998373-940;Hegistr. 41b, 8404 Winterthur, ZH;47.50330734;8.756090164;Winterthur;230
1693998373-941;Albisriederstrasse 278, 8047 Zürich, ZH;47.37786484;8.491551399;Zürich;261
1693998373-942;Dorfstr. 17, 8906 Bonstetten, ZH;47.31483459;8.46924305;Bonstetten;3
1693998373-943;Bahnstr. 92, 8193 Eglisau, ZH;47.57445526;8.515942574;Eglisau;55
1693998373-944;Sandbuckweg 7, 8157 Dielsdorf, ZH;47.47729874;8.456282616;Dielsdorf;86
1693998373-945;Caspar-Wüst-Strasse 57, 8052 Zürich, ZH;47.43046951;8.542308807;Zürich;261
1693998373-946;Hohenklingenstrasse 45, 8049 Zürich, ZH;47.40235138;8.490530014;Zürich;261
1693998373-948;Oetenbachgasse 11, 8001 Zürich, ZH;47.37390137;8.539582253;Zürich;261
1693998373-949;Dorfstrasse 21, 8352 Elsau, ZH;47.50718689;8.802099228;Elsau;219
1693998373-950;Dorfstrasse 21, 8352 Elsau, ZH;47.50718689;8.802099228;Elsau;219
1693998373-951;Ametsbergstrasse 1, 8625 Gossau ZH, ZH;47.30426407;8.766882896;Gossau (ZH);115
1693998373-953;Tösstalstrasse 284, 8405 Winterthur, ZH;47.48061752;8.763045311;Winterthur;230
1693998373-954;Leutschenbachstrasse 40, 8050 Zürich, ZH;47.41581345;8.554472923;Zürich;261
1693998373-955;Albisriederstrasse 181, 8047 Zürich, ZH;47.37754059;8.498313904;Zürich;261
1693998373-956;Baslerstrasse 107, 8048 Zürich, ZH;47.3875618;8.492484093;Zürich;261
1693998373-959;Rainstrasse 10, 8134 Adliswil, ZH;47.32304764;8.517567635;Adliswil;131
1693998373-960;Isikerstrasse 26, 8335 Hittnau, ZH;47.37002563;8.819698334;Hittnau;173
1693998377-961;Zugerstrasse 29, 8820 Wädenswil, ZH;47.22973251;8.668779373;Wädenswil;293
1693998377-963;Pfruendhofstrasse 48, 8910 Affoltern am Albis, ZH;47.27651215;8.4567976;Affoltern am Albis;2
1693998377-964;Meier-Bosshard-Strasse 12, 8048 Zürich, ZH;47.38928223;8.486002922;Zürich;261
1693998377-965;Neugutstrasse 26, 8102 Oberengstringen, ZH;47.40811539;8.456278801;Oberengstringen;245
1693998377-966;Eggbühlstrasse 9, 8050 Zürich, ZH;47.4161644;8.54442215;Zürich;261
1693998377-967;Bachtelweg 2, 8132 Egg b. Zürich, ZH;47.2977562;8.692445755;Egg;192
1693998377-968;Wibichstrasse 33, 8037 Zürich, ZH;47.3971138;8.529072762;Zürich;261
1693998377-969;Schärackerstrasse 25, 8330 Pfäffikon ZH, ZH;47.37145615;8.778820992;Pfäffikon;177
1693998377-970;Müllerstrasse 71, 8004 Zürich, ZH;47.37608337;8.528377533;Zürich;261
1693998377-972;Loowiesenstrasse 41, 8106 Adlikon b. Regensdorf, ZH;47.45358276;8.46252346;Regensdorf;96
1693998377-973;Loowiesenstrasse 29, 8106 Adlikon b. Regensdorf, ZH;47.45315933;8.463363647;Regensdorf;96
1693998377-974;Max-Müller-Strasse 14, 8953 Dietikon, ZH;47.39700317;8.413362503;Dietikon;243
1693998377-976;Pfingstweidstrasse 104C, 8005 Zürich, ZH;47.39141846;8.509009361;Zürich;261
1693998377-977;Im Berg 8b, 8332 Russikon, ZH;47.39666748;8.773603439;Russikon;178
1693998377-978;Hofackerstrasse 22, 8953 Dietikon, ZH;47.39663696;8.413021088;Dietikon;243
1693998377-979;Nussbaumstrasse 29, 8003 Zürich, ZH;47.37076187;8.513245583;Zürich;261
1693998377-980;Ankerstrasse 114, 8004 Zürich, ZH;47.37624741;8.528149605;Zürich;261
1693998377-981;Hofächerstrasse 25, 8907 Wettswil, ZH;47.33654404;8.472710609;Wettswil am Albis;14
1693998377-982;Tannenbergstrasse 46, 8625 Gossau ZH, ZH;47.30555725;8.768151283;Gossau (ZH);115
1693998377-983;Tannenbergstrasse 46, 8625 Gossau ZH, ZH;47.30555725;8.768151283;Gossau (ZH);115
1693998377-984;Tannenbergstrasse 46, 8625 Gossau ZH, ZH;47.30555725;8.768151283;Gossau (ZH);115
1693998381-985;Giessenstrasse 1, 8600 Dübendorf, ZH;47.4015274;8.611455917;Dübendorf;191
1693998381-986;Lettenstrasse 29, 8408 Winterthur, ZH;47.50551987;8.690683365;Winterthur;230
1693998381-987;Lorenweg 22, 8610 Uster, ZH;47.35791397;8.709260941;Uster;198
1693998381-988;Sulzerallee 51, 8404 Winterthur, ZH;47.50260544;8.762682915;Winterthur;230
1693998381-989;Winzerhalde 99, 8049 Zürich, ZH;47.40299988;8.483833313;Zürich;261
1693998381-990;Tannenbergstrasse 46, 8625 Gossau ZH, ZH;47.30555725;8.768151283;Gossau (ZH);115
1693998381-991;Katharina Sulzer Platz 2, 8400 Winterthur, ZH;47.49661255;8.718550682;Winterthur;230
1693998381-995;Eggbühlstrasse 9, 8050 Zürich, ZH;47.4161644;8.54442215;Zürich;261
1693998381-996;Sulzerallee 51, 8404 Winterthur, ZH;47.50260544;8.762682915;Winterthur;230
1693998381-997;Bungert 6, 8909 Zwillikon, ZH;47.2874527;8.430000305;Affoltern am Albis;2
1693998381-998;Tösstalstrasse 12, 8492 Wila, ZH;47.42120743;8.844902039;Wila;181
1693998381-999;Murzlenstrasse 66, 8166 Niederweningen, ZH;47.50921631;8.367651939;Niederweningen;91
1693998381-1000;Moosackerstrasse 5, 8405 Winterthur, ZH;47.47838211;8.767664909;Winterthur;230
1693998381-1001;Murzlenstrasse 66, 8166 Niederweningen, ZH;47.50921631;8.367651939;Niederweningen;91
1693998381-1002;Bungert 6, 8909 Zwillikon, ZH;47.2874527;8.430000305;Affoltern am Albis;2
1693998381-1003;Ebnetstrasse 6, 8406 Winterthur, ZH;47.49263;8.710478783;Winterthur;230
1693998381-1004;Hölderlinstrasse 12, 8032 Zürich, ZH;47.3663559;8.564249039;Zürich;261
1693998381-1006;Holzmoosrütisteig 2b, 8820 Wädenswil, ZH;47.23467636;8.651984215;Wädenswil;293
1693998381-1007;Vogelbuckstrasse 25, 8307 Effretikon, ZH;47.4337616;8.684772491;Illnau-Effretikon;296
1693998381-1008;Maneggstrasse 83, 8041 Zürich, ZH;47.33815002;8.519996643;Zürich;261
